{"type": "FeatureCollection", "name": "BDD_Chawls_Worli", "features": [{"type": "Feature", "properties": {"id": "8895aca9592ace1dce3022b569c64e3d", "Height": 4}, "geometry": {"type": "Polygon", "coordinates": [[[72.82190925012354, 19.000094868143414], [72.82155352739203, 19.000141190298027], [72.82156250366428, 19.0002644931128], [72.8219247081342, 19.00021744020263], [72.82190925012354, 19.000094868143414]]]}}, {"type": "Feature", "properties": {"id": "55bea57fec393de64cb946f3f349074b", "Height": 4}, "geometry": {"type": "Polygon", "coordinates": [[[72.82142389261695, 19.000155806132565], [72.82108036046323, 19.000194538085697], [72.82109349977209, 19.000298724275538], [72.82144428656558, 19.00026539015585], [72.82142389261695, 19.000155806132565]]]}}, {"type": "Feature", "properties": {"id": "761cc2f1bdba87c53cfedd49c4b81512", "Height": 4}, "geometry": {"type": "Polygon", "coordinates": [[[72.82157332427231, 19.0003502934708], [72.8219363016425, 19.000309369183277], [72.82194682371633, 19.000444929048726], [72.82159680982308, 19.00048439172107], [72.82157332427231, 19.0003502934708]]]}}, {"type": "Feature", "properties": {"id": "ad7dd9b84bdafb704d344704021525c8", "Height": 4}, "geometry": {"type": "Polygon", "coordinates": [[[72.82160346739452, 19.000589308507234], [72.82195996302622, 19.000549115072765], [72.82197696683754, 19.000683943940544], [72.82161969830551, 19.00071800876077], [72.82160346739452, 19.000589308507234]]]}}, {"type": "Feature", "properties": {"id": "b9d01db13b7ac3f3bbaff9662f1af9e9", "Height": 4}, "geometry": {"type": "Polygon", "coordinates": [[[72.82163361051568, 19.000828323178414], [72.82199813368747, 19.000799656172408], [72.82201359169818, 19.000922227679297], [72.82164984142773, 19.00095702323528], [72.82163361051568, 19.000828323178414]]]}}, {"type": "Feature", "properties": {"id": "724dd26d9e5e435c0d3a25a694ef3405", "Height": 4}, "geometry": {"type": "Polygon", "coordinates": [[[72.82166298073659, 19.001061208917175], [72.82201376753005, 19.001027874960005], [72.82202999844209, 19.001156574851734], [72.82168569338711, 19.00118917799485], [72.82166298073659, 19.001061208917175]]]}}, {"type": "Feature", "properties": {"id": "789bff9725060e9ace0cc5b2867be32f", "Height": 4}, "geometry": {"type": "Polygon", "coordinates": [[[72.82168586921895, 19.0012948250953], [72.82204236485069, 19.001254631841167], [72.82205859576268, 19.00138333154723], [72.82169561839149, 19.0014242555538], [72.82168586921895, 19.0012948250953]]]}}, {"type": "Feature", "properties": {"id": "40c9f66bfc76cca53463bc976668cec4", "Height": 4}, "geometry": {"type": "Polygon", "coordinates": [[[72.8217152394399, 19.001527710139474], [72.82207173507153, 19.00148751694521], [72.82208873888388, 19.00162234500502], [72.82173717919011, 19.001649550291393], [72.8217152394399, 19.001527710139474]]]}}, {"type": "Feature", "properties": {"id": "f01eeab929d7efe44fcef22dc1f0045a", "Height": 4}, "geometry": {"type": "Polygon", "coordinates": [[[72.82211561457105, 19.001731197216763], [72.8217453825611, 19.001766723376612], [72.82176161347306, 19.00189542266032], [72.82213261838339, 19.00186602506551], [72.82211561457105, 19.001731197216763]]]}}, {"type": "Feature", "properties": {"id": "f4c3a9eaf5c6c8249e8111cf370eeaf9", "Height": 4}, "geometry": {"type": "Polygon", "coordinates": [[[72.82177552568321, 19.00200573624851], [72.82213356711557, 19.001977800241157], [72.82214902512727, 19.002100370824756], [72.82178604775604, 19.0021412946437], [72.82177552568321, 19.00200573624851]]]}}, {"type": "Feature", "properties": {"id": "fb690cdaab9ecaaa0dddb84d86a415a5", "Height": 4}, "geometry": {"type": "Polygon", "coordinates": [[[72.82179841416563, 19.002239351015753], [72.82216864617563, 19.002203824963253], [72.82218564998696, 19.00233865240456], [72.82181464507661, 19.002368049910547], [72.82179841416563, 19.002239351015753]]]}}, {"type": "Feature", "properties": {"id": "3feb1859ff3c3b51ff597564e67bd1ee", "Height": 4}, "geometry": {"type": "Polygon", "coordinates": [[[72.82184152076486, 19.002476901603274], [72.82219076175674, 19.00243131092117], [72.82220128383055, 19.002566868946523], [72.82186346051405, 19.002598741015735], [72.82184152076486, 19.002476901603274]]]}}, {"type": "Feature", "properties": {"id": "4234319e3fcf8ce4062d477c22026c2c", "Height": 4}, "geometry": {"type": "Polygon", "coordinates": [[[72.8218773727242, 19.002709054107775], [72.82223464125626, 19.002674989721196], [72.82225009926796, 19.002797559758445], [72.82189360363623, 19.002837752616067], [72.8218773727242, 19.002709054107775]]]}}, {"type": "Feature", "properties": {"id": "59aa44c008da2a6495382cfa7c60c5ec", "Height": 4}, "geometry": {"type": "Polygon", "coordinates": [[[72.82191399758489, 19.0029473347602], [72.82226478437842, 19.002914001205042], [72.82227298775038, 19.003031173342883], [72.82193022849593, 19.003076033073338], [72.82191399758489, 19.0029473347602]]]}}, {"type": "Feature", "properties": {"id": "7cd13f06a80ff7e2bb5921b40f8badae", "Height": 4}, "geometry": {"type": "Polygon", "coordinates": [[[72.82193534026572, 19.00316869115205], [72.82229415459932, 19.003146883838127], [72.82230961261004, 19.003269453505474], [72.82195882581652, 19.00330278698489], [72.82193534026572, 19.00316869115205]]]}}, {"type": "Feature", "properties": {"id": "f36a3854fc6c58e2aee94bdeaceb2cfa", "Height": 4}, "geometry": {"type": "Polygon", "coordinates": [[[72.82196548338692, 19.003407701881336], [72.82229682496488, 19.003376560753352], [72.8223203105157, 19.003510656408913], [72.82197755126228, 19.003555516000844], [72.82196548338692, 19.003407701881336]]]}}, {"type": "Feature", "properties": {"id": "51f9b263f4c173ca0117ca0507888111", "Height": 4}, "geometry": {"type": "Polygon", "coordinates": [[[72.82200210824759, 19.003645981470232], [72.82233915866286, 19.003607981147116], [72.82235461667459, 19.00373055045307], [72.82200460278132, 19.003770012295433], [72.82200210824759, 19.003645981470232]]]}}, {"type": "Feature", "properties": {"id": "267cba15e681e93767ffc30268841b3e", "Height": 4}, "geometry": {"type": "Polygon", "coordinates": [[[72.82203070556824, 19.00387273455534], [72.82237578352353, 19.003846260429842], [72.82238398689545, 19.003963431870215], [72.82204770938047, 19.004007560558797], [72.82203070556824, 19.00387273455534]]]}}, {"type": "Feature", "properties": {"id": "4b6744898049693fbdbf2bedd8c4dc99", "Height": 4}, "geometry": {"type": "Polygon", "coordinates": [[[72.8220608486893, 19.00411174420859], [72.82240592664472, 19.004085270123543], [72.82242138465641, 19.004207839056335], [72.82207785250168, 19.004246570005986], [72.8220608486893, 19.00411174420859]]]}}, {"type": "Feature", "properties": {"id": "2a91a130cc5548f003693321b514df53", "Height": 4}, "geometry": {"type": "Polygon", "coordinates": [[[72.82208867310969, 19.004332368179366], [72.82242726932652, 19.004306624904665], [72.82244272733723, 19.004429193663015], [72.82208623170547, 19.00446938610132], [72.82208867310969, 19.004332368179366]]]}}, {"type": "Feature", "properties": {"id": "374ad44b62543e6711b38ed58ca23a32", "Height": 4}, "geometry": {"type": "Polygon", "coordinates": [[[72.8214501712357, 19.000364178494404], [72.821093675604, 19.00040437197739], [72.82111222521783, 19.000551458145875], [72.8214614662098, 19.0005058669025], [72.8214501712357, 19.000364178494404]]]}}, {"type": "Feature", "properties": {"id": "1a6ee93437816fd89e7e946757edc0c8", "Height": 4}, "geometry": {"type": "Polygon", "coordinates": [[[72.8215676521203, 19.001295722132415], [72.82121115648863, 19.00133591537602], [72.82122661449927, 19.001458486462692], [72.82158311013102, 19.001418293250584], [72.8215676521203, 19.001295722132415]]]}}, {"type": "Feature", "properties": {"id": "8533938c1be0b6441b10bc0e2c0c8af2", "Height": 4}, "geometry": {"type": "Polygon", "coordinates": [[[72.82161801335823, 19.00153867191749], [72.82122833613276, 19.001576390476743], [72.82124611284536, 19.001717347000685], [72.8216350171706, 19.00167349993263], [72.82161801335823, 19.00153867191749]]]}}, {"type": "Feature", "properties": {"id": "f23a88df78bf4a27fae5fd24098b6390", "Height": 4}, "geometry": {"type": "Polygon", "coordinates": [[[72.82163025706453, 19.001792134568394], [72.82125925215419, 19.001821532177093], [72.82127548306626, 19.001950231415687], [72.82164648797651, 19.001920833831182], [72.82163025706453, 19.001792134568394]]]}}, {"type": "Feature", "properties": {"id": "1e94c51340d20218c026920bea8c96bb", "Height": 4}, "geometry": {"type": "Polygon", "coordinates": [[[72.82163940916863, 19.002021082690494], [72.82130158585315, 19.002052954870926], [72.82131781676507, 19.002181653919088], [72.82165486718031, 19.002143653240203], [72.82163940916863, 19.002021082690494]]]}}, {"type": "Feature", "properties": {"id": "8ef1e0b318681f58aa505445b96f5c61", "Height": 4}, "geometry": {"type": "Polygon", "coordinates": [[[72.82168406156939, 19.00227089065068], [72.82132679303739, 19.002304955125293], [72.82135182438873, 19.00245130872574], [72.82169535654349, 19.002412577330553], [72.82168406156939, 19.00227089065068]]]}}, {"type": "Feature", "properties": {"id": "f2cb1fc87ddc167957d63b7a6660ce18", "Height": 4}, "geometry": {"type": "Polygon", "coordinates": [[[72.8217061771515, 19.002498376511088], [72.82136264499677, 19.002537107884073], [72.82137810300748, 19.002659678029335], [72.82171515342375, 19.002621677466614], [72.8217061771515, 19.002498376511088]]]}}, {"type": "Feature", "properties": {"id": "03deaf199977878e6adbd6dbf36300cb", "Height": 4}, "geometry": {"type": "Polygon", "coordinates": [[[72.82171610215585, 19.002733452102163], [72.82139046941707, 19.00275773407641], [72.82140747322835, 19.002892561041193], [72.82174375074328, 19.00284843203789], [72.82171610215585, 19.002733452102163]]]}}, {"type": "Feature", "properties": {"id": "f132b10a3165d60279e562a3b49a7433", "Height": 4}, "geometry": {"type": "Polygon", "coordinates": [[[72.82175998165533, 19.002977130431457], [72.82142138543858, 19.003002873925997], [72.82143268041267, 19.00314455994263], [72.82177698546771, 19.00311195720713], [72.82175998165533, 19.002977130431457]]]}}, {"type": "Feature", "properties": {"id": "c03acccd0b200aa7dcb0b9a46b2b3fd9", "Height": 4}, "geometry": {"type": "Polygon", "coordinates": [[[72.82178857897598, 19.003203884487398], [72.82144427392097, 19.003236487203786], [72.82145170439262, 19.00334753062246], [72.82181468176287, 19.00330660711917], [72.82178857897598, 19.003203884487398]]]}}, {"type": "Feature", "properties": {"id": "82b8da98d5cb13abfc7e85b6ad07a28a", "Height": 4}, "geometry": {"type": "Polygon", "coordinates": [[[72.82089084423802, 19.000203473835217], [72.82051490338979, 19.000245859733397], [72.82053684313901, 19.00036770088292], [72.82091355688854, 19.000331443614677], [72.82089084423802, 19.000203473835217]]]}}, {"type": "Feature", "properties": {"id": "ab17d34fe12a042626bf29d8923d7007", "Height": 4}, "geometry": {"type": "Polygon", "coordinates": [[[72.82092176025948, 19.00044861768739], [72.82054504651099, 19.00048487492941], [72.82055479568449, 19.000614306057184], [72.82094370000972, 19.000570458679913], [72.82092176025948, 19.00044861768739]]]}}, {"type": "Feature", "properties": {"id": "c8f3f6d598da1a0ca614ac87d189de33", "Height": 4}, "geometry": {"type": "Polygon", "coordinates": [[[72.8216328009292, 18.99988362248521], [72.82127553239711, 18.999917687478774], [72.82128528156969, 19.000047119076825], [72.82164903184118, 19.00001232331844], [72.8216328009292, 18.99988362248521]]]}}, {"type": "Feature", "properties": {"id": "1f397d3ae41ac5030ed616c8763f712d", "Height": 4}, "geometry": {"type": "Polygon", "coordinates": [[[72.82170945723024, 18.99965742815644], [72.82175351256154, 19.000006759249636], [72.82190830139135, 18.99998309162214], [72.82185128258196, 18.999635222064704], [72.82170945723024, 18.99965742815644]]]}}, {"type": "Feature", "properties": {"id": "b94dde6b1a91331b42830b7b341ea9f6", "Height": 4}, "geometry": {"type": "Polygon", "coordinates": [[[72.82060111658812, 19.000720966603225], [72.8209583851202, 19.000686901784597], [72.82097384313091, 19.000809473379896], [72.82062305633742, 19.00084280738359], [72.82060111658812, 19.000720966603225]]]}}, {"type": "Feature", "properties": {"id": "b61e566e8d81b9e045e4c353436d3d97", "Height": 4}, "geometry": {"type": "Polygon", "coordinates": [[[72.82063542274695, 19.00094086456975], [72.82099346417932, 19.00091292837227], [72.82100814928971, 19.001029371221975], [72.82065088075774, 19.001063435966955], [72.82063542274695, 19.00094086456975]]]}}, {"type": "Feature", "properties": {"id": "86a40aa109d48432124178130dbdaefd", "Height": 4}, "geometry": {"type": "Polygon", "coordinates": [[[72.82066633876845, 19.001186007267158], [72.82101712556197, 19.001152673336595], [72.82103181067237, 19.001269116006856], [72.82068179678018, 19.00130857847131], [72.82066633876845, 19.001186007267158]]]}}, {"type": "Feature", "properties": {"id": "c109a3b82b56b3da4ff39a17158666f7", "Height": 4}, "geometry": {"type": "Polygon", "coordinates": [[[72.82069493608908, 19.001412763919024], [72.82105143172083, 19.001372570695203], [72.8210749172716, 19.001506668069016], [72.82071116700112, 19.001541463494956], [72.82069493608908, 19.001412763919024]]]}}, {"type": "Feature", "properties": {"id": "0f296966e9d9bbe64c3fc029233a074c", "Height": 4}, "geometry": {"type": "Polygon", "coordinates": [[[72.82072430630996, 19.001645648787594], [72.82106212962645, 19.001613776524152], [72.82107758763728, 19.001736347393045], [72.82074131012224, 19.00178047671013], [72.82072430630996, 19.001645648787594]]]}}, {"type": "Feature", "properties": {"id": "e0ec118975c23adbc81d4379a7f3f529", "Height": 4}, "geometry": {"type": "Polygon", "coordinates": [[[72.81939415965293, 19.000272767441462], [72.81908630362678, 19.000438007476525], [72.81914481510714, 19.000537077974986], [72.81944850809667, 19.000390954618528], [72.81939415965293, 19.000272767441462]]]}}, {"type": "Feature", "properties": {"id": "0f9f76d0e881ef9e2c9b0bceb3a19e97", "Height": 4}, "geometry": {"type": "Polygon", "coordinates": [[[72.81951272841535, 19.000483165767154], [72.81920255368728, 19.000630019827614], [72.81926261096922, 19.000741347365494], [72.81957201279702, 19.000588364822896], [72.81951272841535, 19.000483165767154]]]}}, {"type": "Feature", "properties": {"id": "58e9eadb20c5777969b818837dee9669", "Height": 4}, "geometry": {"type": "Polygon", "coordinates": [[[72.81961833370072, 19.00069502538761], [72.81931541361146, 19.000847277036726], [72.8193739250929, 19.000946347275903], [72.81968980865813, 19.000792634146414], [72.81961833370072, 19.00069502538761]]]}}, {"type": "Feature", "properties": {"id": "a3f65cf80d55317468f3728953cde9a3", "Height": 4}, "geometry": {"type": "Polygon", "coordinates": [[[72.81974338420159, 19.00090469235642], [72.8194282735356, 19.001064533944007], [72.81949403965578, 19.001169001822092], [72.81981069612235, 19.001021417480313], [72.81974338420159, 19.00090469235642]]]}}, {"type": "Feature", "properties": {"id": "f9c9f5d1f0730165e92123eb09261042", "Height": 4}, "geometry": {"type": "Polygon", "coordinates": [[[72.81986272586525, 19.00112121839708], [72.81955332403751, 19.001274200417484], [72.81962711769675, 19.00139019447904], [72.8199227831462, 19.001232545585285], [72.81986272586525, 19.00112121839708]]]}}, {"type": "Feature", "properties": {"id": "47a701ec53cf300737e03460308b05b3", "Height": 4}, "geometry": {"type": "Polygon", "coordinates": [[[72.81999580390622, 19.001342411121634], [72.81966850266348, 19.001509842381918], [72.8197213053057, 19.00161577153359], [72.82005354248628, 19.001435352494717], [72.81999580390622, 19.001342411121634]]]}}, {"type": "Feature", "properties": {"id": "64417f2a9010395aa5c409b4b0d334ab", "Height": 4}, "geometry": {"type": "Polygon", "coordinates": [[[72.82010557222824, 19.00153515314738], [72.81978397982375, 19.001695724874875], [72.81985129174454, 19.001812449408398], [72.820172884149, 19.001651877800768], [72.82010557222824, 19.00153515314738]]]}}, {"type": "Feature", "properties": {"id": "f90c6a86cbbcc7063b7f2afadcd52e41", "Height": 4}, "geometry": {"type": "Polygon", "coordinates": [[[72.82022568679227, 19.001757806855316], [72.81990564018828, 19.001930635421083], [72.81994393355185, 19.00202576879357], [72.82029716174955, 19.001855414950843], [72.82022568679227, 19.001757806855316]]]}}, {"type": "Feature", "properties": {"id": "5f099bbdd51f7a6e6ce0ef41e59e118d", "Height": 4}, "geometry": {"type": "Polygon", "coordinates": [[[72.820342709753, 19.00195594611842], [72.82003408082652, 19.00211505584843], [72.82008533766817, 19.002208727545177], [72.82039473949489, 19.002055746438852], [72.820342709753, 19.00195594611842]]]}}, {"type": "Feature", "properties": {"id": "9f84d2e99816e79dc1656d6acc5b2949", "Height": 4}, "geometry": {"type": "Polygon", "coordinates": [[[72.82046205141671, 19.002172470703716], [72.82015419539054, 19.002337708730803], [72.82021116106927, 19.00242452099873], [72.82051253535703, 19.002260013844932], [72.82046205141671, 19.002172470703716]]]}}, {"type": "Feature", "properties": {"id": "679f7f75a7f9c3bc647b5b71d2be9958", "Height": 4}, "geometry": {"type": "Polygon", "coordinates": [[[72.8205668838008, 19.00237819951936], [72.8202857276299, 19.002546642717277], [72.82034994794952, 19.002638852594952], [72.8206341957215, 19.002494923543566], [72.8205668838008, 19.00237819951936]]]}}, {"type": "Feature", "properties": {"id": "7959337af3b6ed17ef78184f809c3c35", "Height": 4}, "geometry": {"type": "Polygon", "coordinates": [[[72.82070073474304, 19.002605518974047], [72.82039936045534, 19.002770025765344], [72.82045787193577, 19.0028690947866], [72.82076650086225, 19.00270998582375], [72.82070073474304, 19.002605518974047]]]}}, {"type": "Feature", "properties": {"id": "b9712a8bd1119e5b2b57c043fd48e9e8", "Height": 4}, "geometry": {"type": "Polygon", "coordinates": [[[72.82082084930599, 19.00282817115816], [72.82051144747925, 19.00298115150889], [72.82057566779783, 19.003073361130355], [72.8208793607874, 19.002927240143535], [72.82082084930599, 19.00282817115816]]]}}, {"type": "Feature", "properties": {"id": "bf381ca5ae974aef29dda19d52964f27", "Height": 4}, "geometry": {"type": "Polygon", "coordinates": [[[72.82094019096965, 19.003044694535834], [72.82064375261993, 19.003196213120393], [72.82070226410032, 19.003295281871694], [72.8210044112883, 19.003136904119856], [72.82094019096965, 19.003044694535834]]]}}, {"type": "Feature", "properties": {"id": "5e23770cbe93fe071358f7c74880a773", "Height": 4}, "geometry": {"type": "Polygon", "coordinates": [[[72.82105798683179, 19.003248960650218], [72.82076077558067, 19.00339435056021], [72.82082654170091, 19.00349881688297], [72.82112452585221, 19.003359555547412], [72.82105798683179, 19.003248960650218]]]}}, {"type": "Feature", "properties": {"id": "0ec80851944c914b030c7a0e37854206", "Height": 4}, "geometry": {"type": "Polygon", "coordinates": [[[72.8211757826939, 19.00345322649781], [72.82086560796583, 19.003600077769423], [72.82093060118474, 19.003698415490007], [72.82122858533603, 19.003559154332248], [72.8211757826939, 19.00345322649781]]]}}, {"type": "Feature", "properties": {"id": "2d040b320f7560d2eb1cd91b5f8367f4", "Height": 4}, "geometry": {"type": "Polygon", "coordinates": [[[72.82130731493328, 19.003662158993926], [72.8209841767282, 19.003810471618994], [72.8210507157487, 19.003921066118142], [72.82136011757648, 19.003768086686872], [72.82130731493328, 19.003662158993926]]]}}, {"type": "Feature", "properties": {"id": "e0754e3b2cf90b8fb0bdfdb597d363e2", "Height": 4}, "geometry": {"type": "Polygon", "coordinates": [[[72.821403346878, 19.00385023125214], [72.82110119968895, 19.004008608281538], [72.82117499334932, 19.004124600314974], [72.82148023213935, 19.003990737215794], [72.821403346878, 19.00385023125214]]]}}, {"type": "Feature", "properties": {"id": "7c96b9670c3eed271eb9fb165d1b3803", "Height": 4}, "geometry": {"type": "Polygon", "coordinates": [[[72.82151775260274, 19.004079740886308], [72.82121560541472, 19.004238117683208], [72.821289399075, 19.004354109547393], [72.82160682844186, 19.00421265665524], [72.82151775260274, 19.004079740886308]]]}}, {"type": "Feature", "properties": {"id": "aaacb108e6f6c5085375e8e7a5ea3cd4", "Height": 4}, "geometry": {"type": "Polygon", "coordinates": [[[72.82165160354498, 19.004307057867575], [72.82134791055545, 19.004453177565114], [72.82140874073765, 19.004570630812335], [72.82171582386357, 19.004399266707264], [72.82165160354498, 19.004307057867575]]]}}, {"type": "Feature", "properties": {"id": "3b5d1e8fa52ee56e2d3929fd74a9ae4e", "Height": 4}, "geometry": {"type": "Polygon", "coordinates": [[[72.82175489012852, 19.00450052701067], [72.82145119713894, 19.00464664652838], [72.82152576369955, 19.004768766511646], [72.82183516552726, 19.004615787908673], [72.82175489012852, 19.00450052701067]]]}}, {"type": "Feature", "properties": {"id": "b9d997b6911b0e28c0de68f2f186fc8f", "Height": 4}, "geometry": {"type": "Polygon", "coordinates": [[[72.8189734968311, 19.0004818046561], [72.81865499602873, 19.000666891798726], [72.81872076214897, 19.000771359942412], [72.81901488179786, 19.00060145325387], [72.8189734968311, 19.0004818046561]]]}}, {"type": "Feature", "properties": {"id": "9cdcf805453ace2a457f52219af55bfb", "Height": 4}, "geometry": {"type": "Polygon", "coordinates": [[[72.81907755631481, 19.000681407113625], [72.81877124609026, 19.000858903868824], [72.81883623930919, 19.000957243313017], [72.81913838649817, 19.000798863193545], [72.81907755631481, 19.000681407113625]]]}}, {"type": "Feature", "properties": {"id": "c3171d51095125d6d479ad0b1c7cf065", "Height": 4}, "geometry": {"type": "Polygon", "coordinates": [[[72.81919844377911, 19.0009101906112], [72.81889629659113, 19.00106857061797], [72.81895403517127, 19.001161512153782], [72.81925124642233, 19.001016120168085], [72.81919844377911, 19.0009101906112]]]}}, {"type": "Feature", "properties": {"id": "1b3f7053092f116693039987f45b69c5", "Height": 4}, "geometry": {"type": "Polygon", "coordinates": [[[72.81932272138077, 19.001113728726516], [72.81900761071476, 19.0012735700995], [72.81906844089701, 19.001391025734698], [72.81937552402292, 19.00121965814554], [72.81932272138077, 19.001113728726516]]]}}, {"type": "Feature", "properties": {"id": "f69ce65325d7018a0182169c58b433d9", "Height": 4}, "geometry": {"type": "Polygon", "coordinates": [[[72.81943635420524, 19.00133711382028], [72.81912124353919, 19.001496954965923], [72.81919349139788, 19.001600691770506], [72.819503666126, 19.00145383862145], [72.81943635420524, 19.00133711382028]]]}}, {"type": "Feature", "properties": {"id": "c11bcdcaa3bc2fdf6c26b6335bd35b51", "Height": 4}, "geometry": {"type": "Polygon", "coordinates": [[[72.81955492296758, 19.00154751071325], [72.81924552114081, 19.001700492317667], [72.81931206016124, 19.001811088308912], [72.81961991618749, 19.001645849725456], [72.81955492296758, 19.00154751071325]]]}}, {"type": "Feature", "properties": {"id": "660e59a0e918a502c8397cc0662daacc", "Height": 4}, "geometry": {"type": "Polygon", "coordinates": [[[72.81967426463123, 19.001764035864003], [72.81936563570376, 19.001923145790204], [72.8194371106622, 19.00202075378162], [72.81973354901194, 19.001869234059207], [72.81967426463123, 19.001764035864003]]]}}, {"type": "Feature", "properties": {"id": "8201d9d1e743d052a4573a9c8d622f6e", "Height": 4}, "geometry": {"type": "Polygon", "coordinates": [[[72.81979360629396, 19.00198056071498], [72.81948420446612, 19.002133541894814], [72.81954271594756, 19.00223261131926], [72.81985782661253, 19.00207277092642], [72.81979360629396, 19.00198056071498]]]}}, {"type": "Feature", "properties": {"id": "7e823aa65f366d6bd649d023a16e1da6", "Height": 4}, "geometry": {"type": "Polygon", "coordinates": [[[72.81991711099424, 19.002177968912985], [72.81960122742795, 19.002331680681927], [72.81965325716985, 19.002431480762592], [72.81996265899768, 19.002278499874194], [72.81991711099424, 19.002177968912985]]]}}, {"type": "Feature", "properties": {"id": "e805d50e47d9bb988b01cdf87cc587fe", "Height": 4}, "geometry": {"type": "Polygon", "coordinates": [[[72.8200291980181, 19.002389095456717], [72.81972056909167, 19.00254820474703], [72.81977830767175, 19.00264114540359], [72.82008200066032, 19.002495024011974], [72.8200291980181, 19.002389095456717]]]}}, {"type": "Feature", "properties": {"id": "dcf37acd2a449ec396573cb23455fe94", "Height": 4}, "geometry": {"type": "Polygon", "coordinates": [[[72.82012986736558, 19.002613940289685], [72.81985781016922, 19.002750279171117], [72.81990829410948, 19.002837821989008], [72.82018112420715, 19.002707611687647], [72.82012986736558, 19.002613940289685]]]}}, {"type": "Feature", "properties": {"id": "f299d5be190dc0fd7f1172cf1df2a440", "Height": 4}, "geometry": {"type": "Polygon", "coordinates": [[[72.82026710844423, 19.002816014628813], [72.81996573415651, 19.002980521198765], [72.82001699099709, 19.00307419237613], [72.82032068398662, 19.00292807139007], [72.82026710844423, 19.002816014628813]]]}}, {"type": "Feature", "properties": {"id": "9fc0c8f9f15d81adbbe88743195daddc", "Height": 4}, "geometry": {"type": "Polygon", "coordinates": [[[72.82039941358485, 19.003031076467416], [72.82009078465732, 19.003190185103616], [72.82014929613777, 19.003289253859712], [72.82045144332673, 19.003130876100833], [72.82039941358485, 19.003031076467416]]]}}, {"type": "Feature", "properties": {"id": "ff023a768423c430e3c0dba2eb714171", "Height": 4}, "geometry": {"type": "Polygon", "coordinates": [[[72.82051304640932, 19.003254458822603], [72.82021089922137, 19.00341283645534], [72.82027511953996, 19.0035050458223], [72.82055936731298, 19.00336111756808], [72.82051304640932, 19.003254458822603]]]}}, {"type": "Feature", "properties": {"id": "e54a3ef5a8761ea2e0659cb8e84c1f56", "Height": 4}, "geometry": {"type": "Polygon", "coordinates": [[[72.82060723401827, 19.003480033187255], [72.8203206675434, 19.00360557592944], [72.82038304352717, 19.003735286738696], [72.82069244535398, 19.003582307125683], [72.82060723401827, 19.003480033187255]]]}}, {"type": "Feature", "properties": {"id": "03dee2ef47de46ae67e3e2027b1292a2", "Height": 4}, "geometry": {"type": "Polygon", "coordinates": [[[72.82073412885497, 19.003652194855643], [72.8204327545672, 19.003816700545944], [72.82050083938927, 19.00393955195104], [72.82081363135241, 19.00376132791858], [72.82073412885497, 19.003652194855643]]]}}, {"type": "Feature", "properties": {"id": "c15dcd87e45865153be403a6d0221cb8", "Height": 4}, "geometry": {"type": "Polygon", "coordinates": [[[72.82086072515739, 19.00387411477553], [72.82056428680767, 19.004025632556473], [72.82062511698989, 19.00414308612381], [72.82093297301607, 19.003977850003313], [72.82086072515739, 19.00387411477553]]]}}, {"type": "Feature", "properties": {"id": "52680ad3937b2864ff57bc600017b480", "Height": 4}, "geometry": {"type": "Polygon", "coordinates": [[[72.82096633044178, 19.004085969802475], [72.82067714673185, 19.00424288504851], [72.82073643111248, 19.004348081576236], [72.8210378054002, 19.00418357644495], [72.82096633044178, 19.004085969802475]]]}}, {"type": "Feature", "properties": {"id": "d8ba2efb9a7c7055f5f806e483991ef4", "Height": 4}, "geometry": {"type": "Polygon", "coordinates": [[[72.82109708978186, 19.00428877301258], [72.82078768795405, 19.00444175193449], [72.8208549998759, 19.004558474418452], [72.82116362880237, 19.004399367174404], [72.82109708978186, 19.00428877301258]]]}}, {"type": "Feature", "properties": {"id": "6d9198300e735091c756f68a34990cc4", "Height": 4}, "geometry": {"type": "Polygon", "coordinates": [[[72.8212179772461, 19.004517551232052], [72.82090780251805, 19.004664401504243], [72.82098159617833, 19.004780393052254], [72.82127726162673, 19.00462274757505], [72.8212179772461, 19.004517551232052]]]}}, {"type": "Feature", "properties": {"id": "420fb18599c4660f365b5e4ed0e2dc36", "Height": 4}, "geometry": {"type": "Polygon", "coordinates": [[[72.82133577310825, 19.004721815422613], [72.82103285301892, 19.004874063151505], [72.82109291030092, 19.004985387668242], [72.8214023121287, 19.004832409278176], [72.82133577310825, 19.004721815422613]]]}}, {"type": "Feature", "properties": {"id": "bfbf3039a0558300808b3cac01e060d4", "Height": 4}, "geometry": {"type": "Polygon", "coordinates": [[[72.81792197892463, 19.00017147330484], [72.81761566869903, 19.000348970637702], [72.81767340727916, 19.000441912602138], [72.81798203620558, 19.000282801169075], [72.81792197892463, 19.00017147330484]]]}}, {"type": "Feature", "properties": {"id": "4e9eb5378e327c6a25794392eca4bc68", "Height": 4}, "geometry": {"type": "Polygon", "coordinates": [[[72.81804132058727, 19.000388000360537], [72.81774565513783, 19.000545650106435], [72.8177927489418, 19.000658439282493], [72.81810863250803, 19.00050472587005], [72.81804132058727, 19.000388000360537]]]}}, {"type": "Feature", "properties": {"id": "4da5d3b507b1f21030dd9cc1bf084dbb", "Height": 4}, "geometry": {"type": "Polygon", "coordinates": [[[72.81815988934963, 19.000598398530247], [72.81786083376382, 19.000781293169464], [72.817931535822, 19.00087277329897], [72.81823861894792, 19.00070140514194], [72.81815988934963, 19.000598398530247]]]}}, {"type": "Feature", "properties": {"id": "a4bf235d0f814cf176c802377bf1b9ae", "Height": 4}, "geometry": {"type": "Polygon", "coordinates": [[[72.81828725855239, 19.000826451360023], [72.81798665716602, 19.00099708859255], [72.81803220516947, 19.001097620311835], [72.81834731583439, 19.000937778758058], [72.81828725855239, 19.000826451360023]]]}}, {"type": "Feature", "properties": {"id": "5f23e2cdcdcd48b58b10198edcc38bd2", "Height": 4}, "geometry": {"type": "Polygon", "coordinates": [[[72.81841956369307, 19.00104151593448], [72.81810522592843, 19.001207485943894], [72.81817253784922, 19.001324210841794], [72.81847391213687, 19.001159702529705], [72.81841956369307, 19.00104151593448]]]}}, {"type": "Feature", "properties": {"id": "569c4dd1d9d5e625b7e995b8702d0e5f", "Height": 4}, "geometry": {"type": "Polygon", "coordinates": [[[72.81853319651854, 19.00126490113136], [72.81823830396934, 19.001428678546407], [72.81829110661158, 19.00153460775213], [72.81860050843933, 19.001381625986443], [72.81853319651854, 19.00126490113136]]]}}, {"type": "Feature", "properties": {"id": "5221d810976334aa936ef96d02463dcb", "Height": 4}, "geometry": {"type": "Polygon", "coordinates": [[[72.81866550165931, 19.001479965101986], [72.81835764563304, 19.001645203861678], [72.8184249575538, 19.001761928432927], [72.81872216880392, 19.001616537004374], [72.81866550165931, 19.001479965101986]]]}}, {"type": "Feature", "properties": {"id": "27af6387146a8214b6d55ad158d424de", "Height": 4}, "geometry": {"type": "Polygon", "coordinates": [[[72.81879935260046, 19.001707285862143], [72.81849875121411, 19.00187792213369], [72.8185450721178, 19.001984581818007], [72.81886095568409, 19.001830869707913], [72.81879935260046, 19.001707285862143]]]}}, {"type": "Feature", "properties": {"id": "aa285a0575d2d673bf75f158793ea374", "Height": 4}, "geometry": {"type": "Polygon", "coordinates": [[[72.81890495788589, 19.001919143824445], [72.81859710185968, 19.002084382120177], [72.81866286797994, 19.002188849317008], [72.81897381560825, 19.002048125248944], [72.81890495788589, 19.001919143824445]]]}}, {"type": "Feature", "properties": {"id": "0605e9a62e2638140099b42f40b1b4eb", "Height": 4}, "geometry": {"type": "Polygon", "coordinates": [[[72.81746397147138, 19.000397152585915], [72.81732184758528, 19.000469118093854], [72.81750047362966, 19.000790843657068], [72.81762237939884, 19.000714942083693], [72.81746397147138, 19.000397152585915]]]}}, {"type": "Feature", "properties": {"id": "7373f912547e0ef0d79bf1f150c91d08", "Height": 4}, "geometry": {"type": "Polygon", "coordinates": [[[72.81830709211894, 19.001974118821856], [72.8184963629394, 19.0022759941676], [72.81837939310715, 19.002338907167395], [72.81820956750313, 19.002034839594263], [72.81830709211894, 19.001974118821856]]]}}, {"type": "Feature", "properties": {"id": "0f84e8ee7af38eafdcbe6d460ac24847", "Height": 4}, "geometry": {"type": "Polygon", "coordinates": [[[72.81716598731998, 19.000536416559225], [72.8168531953559, 19.00071464426774], [72.81691247973757, 19.000819843168795], [72.81722265446562, 19.000672989286564], [72.81716598731998, 19.000536416559225]]]}}, {"type": "Feature", "properties": {"id": "3e63dc4fe0e365a660dce5dcda09730f", "Height": 4}, "geometry": {"type": "Polygon", "coordinates": [[[72.81726249363075, 19.00078038058106], [72.81697253701948, 19.000931170571505], [72.81703259430154, 19.001042497895014], [72.8173290326513, 19.000890977223932], [72.81726249363075, 19.00078038058106]]]}}, {"type": "Feature", "properties": {"id": "d5c07b0a288a04958710ab1b72e75559", "Height": 4}, "geometry": {"type": "Polygon", "coordinates": [[[72.81738831703193, 19.000996176006336], [72.81710406925993, 19.001140106435997], [72.81715193596415, 19.00125902374393], [72.81744837431395, 19.001107503283546], [72.81738831703193, 19.000996176006336]]]}}, {"type": "Feature", "properties": {"id": "b492e4cac49cfab63cb157ea064a4714", "Height": 4}, "geometry": {"type": "Polygon", "coordinates": [[[72.81752139507395, 19.0012173689077], [72.81723143846268, 19.00136815847589], [72.81729226864496, 19.001485614040067], [72.81757497061642, 19.00132942681342], [72.81752139507395, 19.0012173689077]]]}}, {"type": "Feature", "properties": {"id": "d31ecb83c8d47ca0e36f3b2d562f6040", "Height": 4}, "geometry": {"type": "Polygon", "coordinates": [[[72.81764721847505, 19.001433163730066], [72.81735078012541, 19.00158468387493], [72.8174043556689, 19.001696741517485], [72.81770156691887, 19.001551350029352], [72.81764721847505, 19.001433163730066]]]}}, {"type": "Feature", "properties": {"id": "9c5031d95763d313e656ecff36877cb2", "Height": 4}, "geometry": {"type": "Polygon", "coordinates": [[[72.81776810593935, 19.001661946127022], [72.81747166758957, 19.001813466050315], [72.8175397524117, 19.00193631903001], [72.81783541786112, 19.001778670685784], [72.81776810593935, 19.001661946127022]]]}}, {"type": "Feature", "properties": {"id": "c1e9e67cee67974b6a93ea630c634237", "Height": 4}, "geometry": {"type": "Polygon", "coordinates": [[[72.81788744760304, 19.001878471119372], [72.81759826389211, 19.002035388579355], [72.8176640300123, 19.0021398558099], [72.81794750488505, 19.001989797768584], [72.81788744760304, 19.001878471119372]]]}}, {"type": "Feature", "properties": {"id": "4f5d30de11404871c3e94db3384c190f", "Height": 4}, "geometry": {"type": "Polygon", "coordinates": [[[72.81800678926574, 19.00209499581097], [72.81772408729421, 19.00225118227309], [72.8177944908171, 19.002392420455294], [72.81808212872654, 19.002223246309576], [72.81800678926574, 19.00209499581097]]]}}, {"type": "Feature", "properties": {"id": "58edd7b0a61d065830b12ec2c899392a", "Height": 4}, "geometry": {"type": "Polygon", "coordinates": [[[72.81814712194647, 19.002321584895935], [72.81784420185821, 19.00247383496163], [72.81789052276194, 19.002580494239567], [72.81820640632823, 19.002426782715144], [72.81814712194647, 19.002321584895935]]]}}, {"type": "Feature", "properties": {"id": "79b5b1216eed81e1aafef395d07cef5a", "Height": 4}, "geometry": {"type": "Polygon", "coordinates": [[[72.81968368238199, 19.003298239666364], [72.81936131707717, 19.00345268110928], [72.8194301747995, 19.003581661269905], [72.81974712980028, 19.003384320623788], [72.81968368238199, 19.003298239666364]]]}}, {"type": "Feature", "properties": {"id": "46cb5af71a2706e40bd78146f60364fa", "Height": 4}, "geometry": {"type": "Polygon", "coordinates": [[[72.81979731520742, 19.00352162163988], [72.81949207641726, 19.003655485140634], [72.81956093413967, 19.00378446513404], [72.81986308132763, 19.003626087876683], [72.81979731520742, 19.00352162163988]]]}}, {"type": "Feature", "properties": {"id": "2bba0f8787ba780d5961052fe1340385", "Height": 4}, "geometry": {"type": "Polygon", "coordinates": [[[72.8199223657083, 19.003731284819356], [72.81961450968213, 19.003896521200364], [72.81968027580231, 19.004000987186743], [72.81999045053041, 19.003854136291547], [72.8199223657083, 19.003731284819356]]]}}, {"type": "Feature", "properties": {"id": "3cea1df14888331677f4699e5fba48cc", "Height": 4}, "geometry": {"type": "Polygon", "coordinates": [[[72.82005698955084, 19.00396473076079], [72.81974681482279, 19.004111581552092], [72.81981335384324, 19.004222175839246], [72.82010979219302, 19.004070658248725], [72.82005698955084, 19.00396473076079]]]}}, {"type": "Feature", "properties": {"id": "3882811ec435e28681c46234cd03c5f2", "Height": 4}, "geometry": {"type": "Polygon", "coordinates": [[[72.8201561130967, 19.004177316437577], [72.81987418402552, 19.004339629258975], [72.81993192260563, 19.004432568850874], [72.82022913385671, 19.004287179906143], [72.8201561130967, 19.004177316437577]]]}}, {"type": "Feature", "properties": {"id": "918ea18ec6ff83b43520b40140a15cd8", "Height": 4}, "geometry": {"type": "Polygon", "coordinates": [[[72.8203006088151, 19.004384786423014], [72.81999275278791, 19.00455002211352], [72.82005358297121, 19.004667475287004], [72.82034924842067, 19.004509829695973], [72.8203006088151, 19.004384786423014]]]}}, {"type": "Feature", "properties": {"id": "3a6ce5b0d6443c02f7046c3399f0aed0", "Height": 4}, "geometry": {"type": "Polygon", "coordinates": [[[72.82042149627938, 19.004613564501994], [72.82012012199168, 19.004778069180986], [72.82019391565098, 19.004894060643693], [72.82048309936191, 19.004737146052065], [72.82042149627938, 19.004613564501994]]]}}, {"type": "Feature", "properties": {"id": "8831b169be0e296cf22f028aa8c68e24", "Height": 4}, "geometry": {"type": "Polygon", "coordinates": [[[72.82053590200408, 19.00484307301684], [72.82022650017738, 19.00499605139649], [72.82031403021489, 19.005116709569418], [72.82060089522405, 19.004941409955745], [72.82053590200408, 19.00484307301684]]]}}, {"type": "Feature", "properties": {"id": "f1ef53e371a7a43e525c499bf63997c6", "Height": 4}, "geometry": {"type": "Polygon", "coordinates": [[[72.82066666134426, 19.005045875244075], [72.82036219545438, 19.005185865846705], [72.82043182607705, 19.005320972978257], [72.82074770964331, 19.00516726414752], [72.82066666134426, 19.005045875244075]]]}}, {"type": "Feature", "properties": {"id": "1e2a0db3926f257f62408575d4ffce8d", "Height": 4}, "geometry": {"type": "Polygon", "coordinates": [[[72.81860193533721, 19.00384286131843], [72.81890408252522, 19.00368448412116], [72.81896984864534, 19.003788950249184], [72.81866121971787, 19.00394805811526], [72.81860193533721, 19.00384286131843]]]}}, {"type": "Feature", "properties": {"id": "598fdd0cb3dd72e67b1a01a9784c864f", "Height": 4}, "geometry": {"type": "Polygon", "coordinates": [[[72.81872930453997, 19.004070909417173], [72.81903716056613, 19.00390567322043], [72.81909150900987, 19.00402385765212], [72.81879275195831, 19.004156989949312], [72.81872930453997, 19.004070909417173]]]}}, {"type": "Feature", "properties": {"id": "1282d3fa33f3784d948acc8ef97be8ec", "Height": 4}, "geometry": {"type": "Polygon", "coordinates": [[[72.81884787330236, 19.0042813026323], [72.81916452976886, 19.00413372122756], [72.81922381415053, 19.004238917828747], [72.81891441232278, 19.0043918967994], [72.81884787330236, 19.0042813026323]]]}}, {"type": "Feature", "properties": {"id": "d9c49feb7ad675e2996e67e45899cd7f", "Height": 4}, "geometry": {"type": "Polygon", "coordinates": [[[72.81898017844298, 19.004496362454844], [72.81927738969402, 19.00435097356945], [72.81932941943595, 19.004450772361462], [72.81903375398647, 19.004608418012033], [72.81898017844298, 19.004496362454844]]]}}, {"type": "Feature", "properties": {"id": "1222d3a01d51dcb8f2bec311e85934dd", "Height": 4}, "geometry": {"type": "Polygon", "coordinates": [[[72.81910106590728, 19.00472514037159], [72.81939750425698, 19.00457362326843], [72.81946327037723, 19.004678088803434], [72.8191660591272, 19.004823477384658], [72.81910106590728, 19.00472514037159]]]}}, {"type": "Feature", "properties": {"id": "87b41d0cc9d1b300676aa35394d756a8", "Height": 4}, "geometry": {"type": "Polygon", "coordinates": [[[72.81922040757094, 19.004941661121787], [72.81952903649743, 19.004782554267653], [72.81958986667962, 19.004900007266464], [72.8192861736901, 19.005046126410917], [72.81922040757094, 19.004941661121787]]]}}, {"type": "Feature", "properties": {"id": "2efbdbbaee937f23d22a19c757fb1e97", "Height": 4}, "geometry": {"type": "Polygon", "coordinates": [[[72.81935348561193, 19.005162848443735], [72.81965563279995, 19.00500447258342], [72.81972294472064, 19.005121194647334], [72.81940628825406, 19.005268775120108], [72.81935348561193, 19.005162848443735]]]}}, {"type": "Feature", "properties": {"id": "f5aea76e22c548965b32823486792684", "Height": 4}, "geometry": {"type": "Polygon", "coordinates": [[[72.81953288455654, 19.00549069274582], [72.81947776321249, 19.005366381024277], [72.81978068330072, 19.005214133774686], [72.8198586399987, 19.00531100894564], [72.81953288455654, 19.00549069274582]]]}}, {"type": "Feature", "properties": {"id": "333fdef21766fb8758a004f6770c6b86", "Height": 4}, "geometry": {"type": "Polygon", "coordinates": [[[72.8196579350584, 19.005700353285192], [72.81959710487513, 19.005582900887568], [72.81992101598148, 19.005440718339287], [72.81997875456165, 19.005533657277702], [72.8196579350584, 19.005700353285192]]]}}, {"type": "Feature", "properties": {"id": "1c7ea3f421f8b7de8afa12e09063c8ca", "Height": 4}, "geometry": {"type": "Polygon", "coordinates": [[[72.82012581438559, 19.00544870654252], [72.81996247052112, 19.005143914247927], [72.82008746789249, 19.00509252842726], [72.8202363024794, 19.005386525561747], [72.82012581438559, 19.00544870654252]]]}}, {"type": "Feature", "properties": {"id": "c23e600e0c9ded67f369af9f892eb4d9", "Height": 4}, "geometry": {"type": "Polygon", "coordinates": [[[72.81920052087492, 19.003532966009736], [72.81908277814239, 19.003589750035793], [72.8192735947634, 19.003903879176104], [72.81938330995693, 19.00383556912062], [72.81920052087492, 19.003532966009736]]]}}]}