{"type": "FeatureCollection", "name": "BDD_Chawls", "features": [{"type": "Feature", "properties": {"id": "79266b91a62bb6c31cbb8afe37988402", "Number of Chawls": "121", "chawls_n": 121}, "geometry": {"type": "Polygon", "coordinates": [[[72.81781475290387, 18.999919195018535], [72.81653081265, 19.000618780977106], [72.81952304629391, 19.005855294221703], [72.82194947576014, 19.004641343155143], [72.82264585013408, 19.004487026707622], [72.82191683321105, 19.000001499401606], [72.82095931844455, 19.000104379823625], [72.81964273563992, 19.000629068984566], [72.81944688034719, 19.000217548214138], [72.81847848473043, 19.000598204961875], [72.81803236989711, 18.999806026425944], [72.81781475290387, 18.999919195018535]]]}}, {"type": "Feature", "properties": {"id": "fb897aa2e3e654459ec009ec146359a4", "Number of Chawls": "32", "chawls_n": 32}, "geometry": {"type": "Polygon", "coordinates": [[[72.82856690589114, 18.99142828734982], [72.83111550698149, 18.990715638325327], [72.83150078618735, 18.99071920367834], [72.83143477776406, 18.992172231512853], [72.83134085444752, 18.99352714177182], [72.82947159971587, 18.99345276301439], [72.82856690589114, 18.99142828734982]]]}}, {"type": "Feature", "properties": {"id": "c4195ae9153005b25020341d7e61d115", "Number of Chawls": "42", "chawls_n": 42}, "geometry": {"type": "Polygon", "coordinates": [[[72.84368396439578, 19.008566018362657], [72.84568057133194, 19.011615403220887], [72.84689589729379, 19.0110661392698], [72.8460812282429, 19.009329948182497], [72.84556037425901, 19.008105133385143], [72.84504619789081, 19.00706971590283], [72.84443853490981, 19.007966236293043], [72.84368396439578, 19.008566018362657]]]}}, {"type": "Feature", "properties": {"id": "69c10cf9b53d9675bc1b4e5a5ddb01dd", "Number of Chawls": "12", "chawls_n": 12}, "geometry": {"type": "Polygon", "coordinates": [[[72.85298031624248, 18.996113735656166], [72.85313276243903, 18.996735829986648], [72.85324509121659, 18.99735033551866], [72.85350986619184, 18.998761413707214], [72.85379871161837, 18.9997855758662], [72.85409558052939, 18.99990695763026], [72.85448873125009, 19.000058684711405], [72.85475350622545, 19.000126961851777], [72.8547454827409, 18.9999828211875], [72.85406348659365, 18.998078635432705], [72.85318090334385, 18.996182014416263], [72.85298031624248, 18.996113735656166]]]}}]}