{"type": "FeatureCollection", "name": "Mills_of_Girangaon", "features": [{"type": "Feature", "properties": {"Type": "Government", "area_ha": 14.75}, "geometry": {"type": "Polygon", "coordinates": [[[72.82337773962252, 19.00640754109321], [72.8236127936321, 19.00756040384472], [72.8231133038623, 19.009296627848457], [72.8232895943695, 19.010102229629666], [72.82368624801089, 19.010338353550026], [72.82386253851806, 19.010268905373124], [72.82506719031667, 19.010130008932407], [72.8258751884749, 19.01024112609467], [72.82736634356326, 19.00996638214977], [72.82698392398908, 19.008805570096726], [72.82666188645334, 19.008539153072448], [72.82635997626468, 19.008272735621446], [72.8260580660745, 19.007816018998298], [72.82658137706932, 19.007511540552798], [72.82644048564865, 19.006445861604234], [72.82337773962252, 19.00640754109321]]]}}, {"type": "Feature", "properties": {"Type": "Government", "area_ha": 12.45}, "geometry": {"type": "Polygon", "coordinates": [[[72.82734621622029, 19.009966382150154], [72.82980175243148, 19.009433551394665], [72.82976149773867, 19.007378331058348], [72.8300835352745, 19.00732124124167], [72.8300835352745, 19.006407801516644], [72.82642035830568, 19.00642683156174], [72.82658137707361, 19.007530570472696], [72.82605806607711, 19.00783504888338], [72.82635997626727, 19.00832982511193], [72.82700405133892, 19.00882459986856], [72.82734621622029, 19.009966382150154]]]}}, {"type": "Feature", "properties": {"Type": "Government", "area_ha": 3.76}, "geometry": {"type": "Polygon", "coordinates": [[[72.8273912051867, 18.998318559564026], [72.82707275529239, 18.998333614729674], [72.82680207288126, 18.999011095789257], [72.8264358555038, 18.99928208743988], [72.82586264569406, 19.000456379496043], [72.82557604078863, 19.00111879699847], [72.82613332810391, 19.000983302723924], [72.8263243980405, 19.000561764274394], [72.82699314281786, 19.000576819237097], [72.8269772203235, 19.00038110461196], [72.8277415000698, 19.000320884680903], [72.82772557757539, 19.00014022475699], [72.82829878738514, 19.00014022475699], [72.8273912051867, 18.998318559564026]]]}}, {"type": "Feature", "properties": {"Type": "Private", "area_ha": 6.99}, "geometry": {"type": "Polygon", "coordinates": [[[72.82363349643404, 19.006222334328854], [72.8241589387593, 19.003497456296543], [72.82493914099999, 19.002654391069044], [72.82522574590547, 19.00200703451233], [72.82610148311386, 19.002037144176043], [72.82618109558837, 19.00394909662471], [72.82522574590547, 19.00453622721939], [72.82554419579978, 19.006177170968044], [72.82485952852673, 19.006177170968044], [72.8245729236225, 19.00534917385157], [72.82395194632835, 19.00578575466254], [72.82363349643404, 19.006222334328854]]]}}, {"type": "Feature", "properties": {"Type": "Government", "area_ha": 3.39}, "geometry": {"type": "Polygon", "coordinates": [[[72.82618109558837, 19.002052199005277], [72.82627663055607, 19.003934041967142], [72.82839432235275, 19.00235329530959], [72.82850577981608, 19.002428569300264], [72.82887199719482, 19.002217802040377], [72.82882422971036, 19.002052199005277], [72.82917452459347, 19.00182637641913], [72.82904714463578, 19.001555388912166], [72.82820325241616, 19.001901650648193], [72.8271205227756, 19.002052199005277], [72.82618109558837, 19.002052199005277]]]}}, {"type": "Feature", "properties": {"Type": "Government", "area_ha": 3.21}, "geometry": {"type": "Polygon", "coordinates": [[[72.82667469292366, 19.003813604586085], [72.82714836601468, 19.00440731716941], [72.82874461723713, 19.003693167255918], [72.82863315977383, 19.003211416787195], [72.82965219943554, 19.00271461015555], [72.82923821457231, 19.00193176033092], [72.82898345465688, 19.00208230865961], [72.82898345465688, 19.00223285685324], [72.82850577981608, 19.002533952830646], [72.82834655486835, 19.00251889804504], [72.82667469292366, 19.003813604586085]]]}}, {"type": "Feature", "properties": {"Type": "Government", "area_ha": 5.72}, "geometry": {"type": "Polygon", "coordinates": [[[72.82664980874404, 19.003821092030137], [72.82532128087317, 19.004581391025738], [72.82563973076742, 19.006162116512087], [72.8285217023105, 19.006162116512087], [72.8274230501755, 19.004310408004983], [72.82713644526999, 19.00441579042689], [72.82664980874404, 19.003821092030137]]]}}, {"type": "Feature", "properties": {"Type": "Private", "area_ha": 6.94}, "geometry": {"type": "Polygon", "coordinates": [[[72.82752543211677, 19.004318633922054], [72.8286293130401, 19.00616206454505], [72.82911674097983, 19.00617561910603], [72.8290163881694, 19.005009922799886], [72.82934611883402, 19.005023477454756], [72.82944647164553, 19.00616206454505], [72.83085141100341, 19.005240351787094], [72.82969018561536, 19.002827608916945], [72.82877267419951, 19.003234253426115], [72.82885869089432, 19.003735780284288], [72.82752543211677, 19.004318633922054]]]}}, {"type": "Feature", "properties": {"Type": "Government", "area_ha": 7.82}, "geometry": {"type": "Polygon", "coordinates": [[[72.82236428579617, 18.998479299763318], [72.82262271830177, 19.000209323936573], [72.82327396821361, 19.000150679344245], [72.82334632931605, 19.000404805763026], [72.82597200356525, 18.999906326652308], [72.82630279717162, 18.999183040580263], [72.82668527727873, 18.998919138123256], [72.82698505898426, 18.998293589885378], [72.82500029734777, 18.998381557748232], [72.82501063464704, 18.998762751284218], [72.82444208313669, 18.998782299646763], [72.82443174583582, 18.998391331952163], [72.82236428579617, 18.998479299763318]]]}}, {"type": "Feature", "properties": {"Type": "Government", "area_ha": 6.08}, "geometry": {"type": "Polygon", "coordinates": [[[72.82264339290174, 19.00056119105882], [72.82270541670334, 19.001567917882127], [72.8228604762057, 19.001743850099402], [72.82279845240569, 19.00211526194829], [72.82280878970491, 19.00257463861422], [72.82285013890652, 19.0032392664379], [72.82354273801838, 19.00322949251874], [72.82395623002631, 19.003288136026654], [72.8241423014311, 19.003317457772127], [72.82459714263905, 19.002838535273526], [72.8248555751446, 19.00249644693089], [72.82510367034934, 19.001919782131395], [72.82510367034934, 19.00170475406709], [72.82477287674303, 19.00167543203743], [72.82460747993983, 19.001304019206728], [72.82441107123583, 19.00129424517388], [72.82425601173352, 19.000864187151393], [72.82406994032871, 19.00035593532813], [72.82264339290174, 19.00056119105882]]]}}, {"type": "Feature", "properties": {"Type": "Government", "area_ha": 7.12}, "geometry": {"type": "Polygon", "coordinates": [[[72.8179309864972, 18.998650893273066], [72.81764154209242, 18.99885615110692], [72.81847886340915, 19.00054707505791], [72.81949191882819, 19.000175659709285], [72.8218694978726, 18.999843340009647], [72.82173511297023, 18.998474957785575], [72.8179309864972, 18.998650893273066]]]}}, {"type": "Feature", "properties": {"Type": "Private", "area_ha": 4.1}, "geometry": {"type": "Polygon", "coordinates": [[[72.81880965701802, 18.997038144336813], [72.81881999431724, 18.997693020031136], [72.81996743464023, 18.997575729051462], [72.82013283144346, 18.99842608678054], [72.82121824796323, 18.998367441559765], [72.8211768987633, 18.997468212247284], [72.8220969184799, 18.997438889470345], [72.8224070374863, 18.996568978076], [72.81880965701802, 18.997038144336813]]]}}, {"type": "Feature", "properties": {"Type": "Government", "area_ha": 4.36}, "geometry": {"type": "Polygon", "coordinates": [[[72.82282108788223, 18.991350649723742], [72.82330261957478, 18.992328247440582], [72.82409573059871, 18.99198006261001], [72.8245347742016, 18.992837131650944], [72.82480386544097, 18.993386189186154], [72.8232884568782, 18.994203076314918], [72.82299104024443, 18.994270034098165], [72.82260864742912, 18.993265664516713], [72.82265113551992, 18.992515731277678], [72.82242453237015, 18.991578309978593], [72.82282108788223, 18.991350649723742]]]}}, {"type": "Feature", "properties": {"Type": "Government", "area_ha": 6.1}, "geometry": {"type": "Polygon", "coordinates": [[[72.82410989329534, 18.99594396993254], [72.82286357597195, 18.995756489955724], [72.82252367124738, 18.996680496365585], [72.82294855215369, 18.996693887725925], [72.82306185372849, 18.998126756969683], [72.82723984930044, 18.99807319198628], [72.82694243266667, 18.997550932495074], [72.8252287463473, 18.99760449764662], [72.82440730993005, 18.996426060330492], [72.82410989329534, 18.99594396993254]]]}}, {"type": "Feature", "properties": {"Type": "Government", "area_ha": 7.48}, "geometry": {"type": "Polygon", "coordinates": [[[72.82350089733129, 18.994778912372368], [72.824124055993, 18.995970752768542], [72.82478970274443, 18.996988497362608], [72.82521458365065, 18.997631280215387], [72.82694243266667, 18.997550932495074], [72.82511544477242, 18.9939218533291], [72.82350089733129, 18.994778912372368]]]}}, {"type": "Feature", "properties": {"Type": "Government", "area_ha": 4.55}, "geometry": {"type": "Polygon", "coordinates": [[[72.82620645496331, 19.01272745203579], [72.82613934250585, 19.012200806073196], [72.82587760391993, 19.01107771212388], [72.82588431516609, 19.010938117996446], [72.82599840634467, 19.010874666080483], [72.8270722056678, 19.011122128413405], [72.82878357334127, 19.011655122954764], [72.82807218128815, 19.012911460472765], [72.82721985307506, 19.012784558123656], [72.82620645496331, 19.01272745203579]]]}}, {"type": "Feature", "properties": {"Type": "Government", "area_ha": 2.9}, "geometry": {"type": "Polygon", "coordinates": [[[72.82832132356737, 19.012815477509236], [72.82923533831914, 19.013216690148866], [72.82914828929526, 19.013463589754025], [72.8297358702053, 19.01377221374527], [72.82997525502148, 19.013437871062337], [72.83031801055355, 19.013587039419093], [72.83053019254902, 19.01325784010851], [72.83043226239647, 19.013113815205585], [72.83036697562815, 19.01284119629713], [72.83035609450124, 19.012630302117543], [72.82929518452232, 19.01184330440458], [72.82903403745064, 19.01166327172433], [72.82889802335046, 19.011724997236215], [72.82832132356737, 19.012815477509236]]]}}, {"type": "Feature", "properties": {"Type": "Government", "area_ha": 2.55}, "geometry": {"type": "Polygon", "coordinates": [[[72.83070874396734, 19.009563760019077], [72.8304337923093, 19.009527654882774], [72.83020466592902, 19.009556538992015], [72.83003663991585, 19.00989592690665], [72.83020466592902, 19.010040347084924], [72.83025049120437, 19.01037251302057], [72.83010537782948, 19.01088520261807], [72.83118227182084, 19.011426774420443], [72.83115172163724, 19.01160007702468], [72.83160233685373, 19.011787821308502], [72.83186965096525, 19.01121014591095], [72.83191547624057, 19.01115237826083], [72.83070874396734, 19.009563760019077]]]}}, {"type": "Feature", "properties": {"Type": "Private", "area_ha": 6.18}, "geometry": {"type": "Polygon", "coordinates": [[[72.83109291921176, 19.022108126393007], [72.83192061223247, 19.021308240599268], [72.83283107455318, 19.02071701819105], [72.83426574245391, 19.02273412128565], [72.83421975950844, 19.02292539703184], [72.83340126307857, 19.023499222951386], [72.83283107455318, 19.023960021118526], [72.83162632138112, 19.022595011512777], [72.83109291921176, 19.022108126393007]]]}}, {"type": "Feature", "properties": {"Type": "Private", "area_ha": 3.7}, "geometry": {"type": "Polygon", "coordinates": [[[72.83178309977185, 19.00645766034772], [72.8325185265137, 19.00638724689931], [72.83278849329307, 19.00613199789919], [72.8330305324738, 19.00603517921037], [72.83349599243778, 19.006167204680807], [72.83431520197254, 19.007654684409502], [72.83334704524947, 19.00797154227837], [72.83276987489398, 19.008306002707073], [72.83178309977185, 19.00645766034772]]]}}, {"type": "Feature", "properties": {"Type": "Private", "area_ha": 2.56}, "geometry": {"type": "Polygon", "coordinates": [[[72.83418601209297, 19.009854860327977], [72.83523240362513, 19.01092769525421], [72.83636033216106, 19.009649286378362], [72.83638751116158, 19.00947583316068], [72.83625161615774, 19.009250986127256], [72.83581675214322, 19.00883341225959], [72.8356468833883, 19.00886553336352], [72.83549060413318, 19.00912250197227], [72.83521201937492, 19.00945013637157], [72.83494022936603, 19.009456560569177], [72.83462087610641, 19.009617165424828], [72.83418601209297, 19.009854860327977]]]}}, {"type": "Feature", "properties": {"Type": "Private", "area_ha": 2.57}, "geometry": {"type": "Polygon", "coordinates": [[[72.84213043964706, 19.01226347050398], [72.84028646308244, 19.013032143269413], [72.8410240537088, 19.014054393297585], [72.84241541784388, 19.01355515569729], [72.84213043964706, 19.01226347050398]]]}}, {"type": "Feature", "properties": {"Type": "Private", "area_ha": 17.72}, "geometry": {"type": "Polygon", "coordinates": [[[72.84205500424258, 19.01196233999822], [72.84147666613839, 19.012136678778617], [72.8415604832548, 19.01245365791013], [72.84023617281235, 19.012976672157563], [72.8372462543852, 19.008105619711245], [72.8385438817362, 19.00728046549655], [72.83807306119363, 19.006477021932866], [72.83863574916015, 19.006151300463685], [72.84016304506827, 19.008822197681198], [72.84124248729034, 19.008453051839908], [72.8415180895586, 19.009202199897572], [72.84205500424258, 19.01196233999822]]]}}, {"type": "Feature", "properties": {"Type": "Private", "area_ha": 7.83}, "geometry": {"type": "Polygon", "coordinates": [[[72.84564488312236, 19.014665520884094], [72.84671429479084, 19.0139182143957], [72.84742336122375, 19.0132588235292], [72.84843465269111, 19.01294011700537], [72.84859738925053, 19.013467630920104], [72.84888799024668, 19.013566539592105], [72.8489461104459, 19.0137643567613], [72.84984116151668, 19.013742377086913], [72.85009689039401, 19.01409405151945], [72.8495273124401, 19.01413801077065], [72.84944594416044, 19.01445671499755], [72.84867875753014, 19.014808387918308], [72.84855089309141, 19.01507214212073], [72.84855089309141, 19.01541282401348], [72.84812080361456, 19.015676577257025], [72.8476907141395, 19.015742515502694], [72.84745823334256, 19.015555690405535], [72.84672591883105, 19.016039237283948], [72.84564488312236, 19.014665520884094]]]}}, {"type": "Feature", "properties": {"Type": "Government", "area_ha": 13.32}, "geometry": {"type": "Polygon", "coordinates": [[[72.84836128209838, 19.01035746162981], [72.84963744559633, 19.010249006658185], [72.84968046234354, 19.010520143954096], [72.84969480125852, 19.011035303599698], [72.84958008993297, 19.01137422354911], [72.84945103969238, 19.011658915772287], [72.84906388896826, 19.01190293728979], [72.84936500619781, 19.012499432826232], [72.85095662584146, 19.012038504645744], [72.85095662584146, 19.011753813071323], [72.85117170957648, 19.01168602929168], [72.85114303174541, 19.011360666764006], [72.85161621596401, 19.011292882824037], [72.85164489379514, 19.01100818997422], [72.85236183957994, 19.010926849070188], [72.85239051741101, 19.008093449424422], [72.84960876776407, 19.00745626677883], [72.84963744559633, 19.010032096502755], [72.84827524860393, 19.01016766538278], [72.84836128209838, 19.01035746162981]]]}}, {"type": "Feature", "properties": {"Type": "Government", "area_ha": 3.49}, "geometry": {"type": "Polygon", "coordinates": [[[72.82768526438232, 18.998303987906866], [72.82838258031896, 18.999676105372586], [72.82900451074687, 18.999658285737212], [72.82887258611106, 18.999114785958383], [72.83101164985956, 18.99889203963427], [72.8311153049311, 18.998143609802526], [72.82768526438232, 18.998303987906866]]]}}, {"type": "Feature", "properties": {"Type": "Government", "area_ha": 2.51}, "geometry": {"type": "Polygon", "coordinates": [[[72.83128970556456, 18.994864806853798], [72.8311491402277, 18.994855313193312], [72.83112905946456, 18.995235059179052], [72.83028566743994, 18.99520657826011], [72.82972842627987, 18.993886957010034], [72.8299493146676, 18.99376353866046], [72.82997441561986, 18.99350720794949], [72.83132986708921, 18.993587904697463], [72.83128970556456, 18.994864806853798]]]}}, {"type": "Feature", "properties": {"Type": "Private", "area_ha": 6.48}, "geometry": {"type": "Polygon", "coordinates": [[[72.83152840112018, 18.987405098698048], [72.82788276513702, 18.985800525088308], [72.8280224016782, 18.987106262667155], [72.82797876368764, 18.987952170164093], [72.82968064533745, 18.98842670175644], [72.82972428332806, 18.987807747236985], [72.83153525995687, 18.98852986061904], [72.83152840112018, 18.987405098698048]]]}}, {"type": "Feature", "properties": {"Type": "Private", "area_ha": 6.6}, "geometry": {"type": "Polygon", "coordinates": [[[72.82723691784096, 18.987829548364715], [72.82976792132038, 18.988572293051277], [72.82981155931094, 18.987912075715727], [72.83151344096075, 18.988572293051277], [72.83151344096075, 18.989645140639297], [72.8281969536423, 18.989789561902143], [72.82793512569714, 18.98931503442563], [72.82768453044682, 18.989021468143804], [72.82745075908778, 18.988319401429166], [72.82723691784096, 18.987829548364715]]]}}, {"type": "Feature", "properties": {"Type": "Private", "area_ha": 1.86}, "geometry": {"type": "Polygon", "coordinates": [[[72.83153463871179, 18.989791329564127], [72.8282896538181, 18.98989010767926], [72.828442616676, 18.990290644610482], [72.82948982392767, 18.990290644610482], [72.8295331789515, 18.990639228423746], [72.83062269951142, 18.990537124672812], [72.8306311621692, 18.990068124211916], [72.8315371729388, 18.990134880362746], [72.83153463871179, 18.989791329564127]]]}}, {"type": "Feature", "properties": {"Type": "Private", "area_ha": 8.91}, "geometry": {"type": "Polygon", "coordinates": [[[72.83310537530883, 18.995881648268906], [72.83310537530883, 18.996935296203418], [72.83386595370942, 18.997855142120528], [72.83432583832325, 18.997771519974705], [72.83425508684346, 18.997286510698785], [72.83607693743136, 18.997269786215995], [72.83623612825986, 18.998156181498544], [72.83729740044717, 18.998072559503285], [72.83726202470658, 18.99747047990087], [72.83664294926416, 18.996316487907393], [72.83641300695726, 18.99546353216101], [72.83420202323535, 18.99524611136991], [72.83413127175552, 18.995915097512523], [72.83310537530883, 18.995881648268906]]]}}, {"type": "Feature", "properties": {"Type": "Government", "area_ha": 8.36}, "geometry": {"type": "Polygon", "coordinates": [[[72.83682526722362, 18.99539918545119], [72.83716093530708, 18.996412386296655], [72.83762570649935, 18.997291302516828], [72.83774189929895, 18.99755985932393], [72.83899419945763, 18.99808476456076], [72.83953643251564, 18.998609668141924], [72.84087910485135, 18.998292284779424], [72.8386327107516, 18.99511841786085], [72.83682526722362, 18.99539918545119]]]}}, {"type": "Feature", "properties": {"Type": "Government", "area_ha": 2.47}, "geometry": {"type": "Polygon", "coordinates": [[[72.83438183421362, 18.99180066656413], [72.83424264784642, 18.993226433061224], [72.83487671907315, 18.993160628722862], [72.83561904636247, 18.993482338576328], [72.83567317439432, 18.99307288956379], [72.8357659653058, 18.992487960656817], [72.83592834940026, 18.99202732769625], [72.83600567515944, 18.991881094742837], [72.83438183421362, 18.99180066656413]]]}}, {"type": "Feature", "properties": {"Type": "Private", "area_ha": 3.8}, "geometry": {"type": "Polygon", "coordinates": [[[72.83586002471577, 18.990337309089128], [72.83828148533385, 18.990349455872774], [72.83831360019704, 18.990009345579452], [72.83817229480283, 18.989742115575268], [72.83772910970214, 18.989298755759336], [72.8373886921618, 18.988958643318796], [72.8371060813734, 18.988691411628196], [72.836675742218, 18.98858816290553], [72.83629036387117, 18.9886792647236], [72.83597563822147, 18.988849321315143], [72.83586002471577, 18.990337309089128]]]}}, {"type": "Feature", "properties": {"Type": "Government", "area_ha": 3.63}, "geometry": {"type": "Polygon", "coordinates": [[[72.83733752816997, 18.98882142917931], [72.83806077447034, 18.989505316514325], [72.83830511443617, 18.989828775761637], [72.83837352962732, 18.989985884312404], [72.84106126925849, 18.989505316514325], [72.84102217486421, 18.989200340076763], [72.84113945804688, 18.988775220474423], [72.83733752816997, 18.98882142917931]]]}}, {"type": "Feature", "properties": {"Type": "Private", "area_ha": 4.04}, "geometry": {"type": "Polygon", "coordinates": [[[72.84011231138015, 18.99470747152266], [72.83987401625714, 18.99331458070523], [72.84018452202326, 18.99324630144413], [72.84008342712309, 18.992891248834397], [72.84166484021083, 18.99248839976366], [72.84169372446894, 18.993266785226027], [72.8416359559537, 18.993505762487985], [72.84175149298298, 18.993683288232134], [72.8418959142692, 18.993813018464593], [72.84199700917048, 18.994543602619302], [72.84011231138015, 18.99470747152266]]]}}, {"type": "Feature", "properties": {"Type": "Government", "area_ha": 6.53}, "geometry": {"type": "Polygon", "coordinates": [[[72.84914559217239, 18.99649224960315], [72.84863440268668, 18.996635464161457], [72.84806641436916, 18.996724973197686], [72.84782028609851, 18.996832383978088], [72.84715763306161, 18.99692189290836], [72.84714816658936, 18.996295329384125], [72.84691150478949, 18.99548974424377], [72.84652337943993, 18.99509590120114], [72.84621098586516, 18.994576743038294], [72.84611632114581, 18.994200799910104], [72.84724283130876, 18.99406653430087], [72.84791495081785, 18.9941291915989], [72.84869120151856, 18.99407548534508], [72.84876693329349, 18.994854224326957], [72.84879533271018, 18.995695616373084], [72.84885213154058, 18.99596414485424], [72.84914559217239, 18.99649224960315]]]}}, {"type": "Feature", "properties": {"Type": "Government", "area_ha": 3.1}, "geometry": {"type": "Polygon", "coordinates": [[[72.84922292667403, 18.996609019095686], [72.84832361183723, 18.996770135351923], [72.84793548648761, 18.996895447888107], [72.84835201125398, 18.99788004310237], [72.84853187422038, 18.99830968282484], [72.84835201125398, 18.998461846627507], [72.84859813952454, 18.998891484847903], [72.84962051849587, 18.998264928738948], [72.84999917737474, 18.998139617233946], [72.84922292667403, 18.996609019095686]]]}}, {"type": "Feature", "properties": {"Type": "Government", "area_ha": 3.6}, "geometry": {"type": "Polygon", "coordinates": [[[72.84864340369148, 18.994025255124043], [72.84772889666479, 18.99406643199653], [72.84731830167351, 18.994001725478455], [72.84688282213864, 18.99376642883695], [72.84698858145367, 18.992219345139077], [72.84649711169303, 18.99225463998458], [72.84649089055662, 18.991784041430876], [72.84713788872358, 18.99171345153283], [72.84754226257843, 18.99153697665774], [72.84822036642737, 18.992931123075365], [72.84864340369148, 18.994025255124043]]]}}, {"type": "Feature", "properties": {"Type": "Private", "area_ha": 6.39}, "geometry": {"type": "Polygon", "coordinates": [[[72.83803350468895, 18.9857121332262], [72.8396829497629, 18.987165856234355], [72.84033688599342, 18.98808234642337], [72.84132946777501, 18.988038178337604], [72.84156301642861, 18.987055435389394], [72.84131023209795, 18.985527404044802], [72.84046605709813, 18.985519895120902], [72.83803350468895, 18.9857121332262]]]}}, {"type": "Feature", "properties": {"Type": "Private", "area_ha": 3.57}, "geometry": {"type": "Polygon", "coordinates": [[[72.83590066078554, 18.987696574304508], [72.8396253536275, 18.987320524166137], [72.83875237874318, 18.986504217285002], [72.83583276273848, 18.98677020535979], [72.83590066078554, 18.987696574304508]]]}}, {"type": "Feature", "properties": {"Type": "Private", "area_ha": 2.75}, "geometry": {"type": "Polygon", "coordinates": [[[72.83712005924102, 18.984909340314644], [72.83834340130534, 18.984816796488147], [72.83829446762263, 18.984261532450518], [72.83963198828044, 18.98433094055723], [72.83986034546479, 18.985433754358013], [72.83787037570738, 18.98561112932296], [72.83712005924102, 18.984909340314644]]]}}, {"type": "Feature", "properties": {"Type": "Private", "area_ha": 2.2}, "geometry": {"type": "Polygon", "coordinates": [[[72.83949130938026, 18.98420555547098], [72.84092599638143, 18.984293081377757], [72.84084665885109, 18.983098973962413], [72.84078054424293, 18.982848898027513], [72.83953097814637, 18.982842646124126], [72.83955742398845, 18.983542857823338], [72.83949130938026, 18.98420555547098]]]}}, {"type": "Feature", "properties": {"Type": "Private", "area_ha": 2.55}, "geometry": {"type": "Polygon", "coordinates": [[[72.83845289012493, 18.984129227697224], [72.83716664244469, 18.98418062009901], [72.83693113230618, 18.98426627406681], [72.83649634435633, 18.983127072697727], [72.83707606162227, 18.982964329008922], [72.83695830655233, 18.982476096988435], [72.83765577888687, 18.982390442100638], [72.83763766272179, 18.98290437076801], [72.83797281176527, 18.982938632622364], [72.83845289012493, 18.984129227697224]]]}}, {"type": "Feature", "properties": {"Type": "Government", "area_ha": 2.22}, "geometry": {"type": "Polygon", "coordinates": [[[72.83534596790963, 18.983521083075203], [72.8364510539451, 18.98305854905867], [72.83701265504604, 18.982921501696083], [72.83672279641371, 18.981610980596045], [72.83511951585362, 18.98271593044072], [72.83534596790963, 18.983521083075203]]]}}, {"type": "Feature", "properties": {"Type": "Government", "area_ha": 7.22}, "geometry": {"type": "Polygon", "coordinates": [[[72.83933915125749, 18.98018671282213], [72.84074315400775, 18.980135319188122], [72.8408880833253, 18.97922736237632], [72.84108736113379, 18.978439320377035], [72.84135910360243, 18.977959640812827], [72.84139533593108, 18.977548485802103], [72.84132287127375, 18.97717159281784], [72.84123229044988, 18.976974580236188], [72.84085185099522, 18.976820396314636], [72.84056199236295, 18.976537725420684], [72.8404170630468, 18.976263619853597], [72.83912175728403, 18.976332146287646], [72.83974676495978, 18.97962138197751], [72.83929386084631, 18.979766997681665], [72.83933915125749, 18.98018671282213]]]}}, {"type": "Feature", "properties": {"Type": "Government", "area_ha": 3.87}, "geometry": {"type": "Polygon", "coordinates": [[[72.82898801264756, 18.980577712894828], [72.829681337345, 18.98224018952949], [72.83128258724267, 18.98184213325429], [72.83093592489394, 18.98005477080457], [72.82898801264756, 18.980577712894828]]]}}, {"type": "Feature", "properties": {"Type": "Government", "area_ha": 2.2}, "geometry": {"type": "Polygon", "coordinates": [[[72.827100616673, 18.97851346448455], [72.82867396109214, 18.978548064908196], [72.82932037391501, 18.977694585700505], [72.82850930877012, 18.977781087170342], [72.82847881759841, 18.97749851553533], [72.82725307252781, 18.977319745476976], [72.827100616673, 18.97851346448455]]]}}, {"type": "Feature", "properties": {"Type": "Government", "area_ha": 8.55}, "geometry": {"type": "Polygon", "coordinates": [[[72.8267922519671, 18.980100658240133], [72.82620549545098, 18.980271382921202], [72.82433238811234, 18.978123084599545], [72.82409919000915, 18.976913765411823], [72.82727369321097, 18.976003213407196], [72.8271382878603, 18.97707737969732], [72.82525765800182, 18.977539767028503], [72.82527270304158, 18.977980812210063], [72.82707810770484, 18.977774517027697], [72.8267922519671, 18.980100658240133]]]}}, {"type": "Feature", "properties": {"Type": "Government", "area_ha": 5.39}, "geometry": {"type": "Polygon", "coordinates": [[[72.82588868731406, 18.980191594358246], [72.82582684960337, 18.980854317191188], [72.82364191717645, 18.980318291574065], [72.8227968018038, 18.977940266221296], [72.82368314231573, 18.97765762980299], [72.8251054096504, 18.97935344111771], [72.82507449079677, 18.979470392985874], [72.8254558233429, 18.980240324067935], [72.82588868731406, 18.980191594358246]]]}}, {"type": "Feature", "properties": {"Type": "Government", "area_ha": 5.15}, "geometry": {"type": "Polygon", "coordinates": [[[72.82935321241985, 18.97366251339588], [72.82955252164209, 18.97503103923316], [72.83163227005403, 18.974744223371545], [72.83202222288111, 18.97421975880536], [72.83236018199887, 18.973752656161594], [72.83251616312944, 18.9733511107371], [72.83249883189299, 18.972843031466525], [72.82935321241985, 18.97366251339588]]]}}]}