{"type": "FeatureCollection", "features": [{"id": "d6c29516ac46ec39e008f88c1093d185", "type": "Feature", "properties": {}, "geometry": {"coordinates": [[[72.80834431783344, 18.892555192946887], [72.80883261612763, 18.893580587677064], [72.80886701209604, 18.894280255759256], [72.80843706250056, 18.894670766905563], [72.80766315322714, 18.894215170479697], [72.80678605605272, 18.89584229487768], [72.80635610645595, 18.89660703788155], [72.80494876724012, 18.898872540731844], [72.80401563710024, 18.901188135757067], [72.8035817047427, 18.903746903503645], [72.80377073675663, 18.907085149965354], [72.80487342350418, 18.910184890603105], [72.80711030233542, 18.913344182521826], [72.80843352643316, 18.91471517742518], [72.80896911713998, 18.913791247311792], [72.80988277187353, 18.912867312094477], [72.81085943727959, 18.912062590164155], [72.81252922006902, 18.911704934730167], [72.81435652953729, 18.912479853870394], [72.81558523762746, 18.913761443030168], [72.81621534434066, 18.91471517742518], [72.81652768457516, 18.91566613316685], [72.81609721638995, 18.916742357971728], [72.8158512345698, 18.917353185183686], [72.81689665730539, 18.918516659414436], [72.81778834140277, 18.917964010165008], [72.81868002550138, 18.917556793759175], [72.81972544823574, 18.917353185183686], [72.82107834824649, 18.916713270905404], [72.82175479825187, 18.916364225721267], [72.82261573462233, 18.917062315360823], [72.82430685963516, 18.919534692723246], [72.82467583236539, 18.919796471715628], [72.82550602100892, 18.919476519558316], [72.82572125510094, 18.920290942025346], [72.82486031873049, 18.920669065393966], [72.82516779600564, 18.92177434418052], [72.8250755528237, 18.922501497290327], [72.82458358918345, 18.922763271636185], [72.82387639144994, 18.922763271636185], [72.82332293235584, 18.922792357648646], [72.82203152780014, 18.923635849825885], [72.82120133915654, 18.923694021543227], [72.82046339369617, 18.923897622393795], [72.81837254822622, 18.925613676854255], [72.8210947540633, 18.928425726160384], [72.82296626106358, 18.931922040763226], [72.82418274061496, 18.936214883921522], [72.82399558991472, 18.94064037990624], [72.82249838431304, 18.944888745696872], [72.81948561575084, 18.94899763442743], [72.8160466194472, 18.952557078620814], [72.81085568162845, 18.95476635061678], [72.80877930650092, 18.955257295976438], [72.80774678788981, 18.95566786766713], [72.80873039457654, 18.956462820261066], [72.81192005279766, 18.956268840965564], [72.81569654825947, 18.95488778410399], [72.82098402596611, 18.949792425981897], [72.82547564277124, 18.943862559738633], [72.82659854697249, 18.939348639750122], [72.82898471839931, 18.935763969297625], [72.82786181419806, 18.93160388490766], [72.8274407251235, 18.926602795264387], [72.82961121513816, 18.923944679635866], [72.83510966576733, 18.92616778355577], [72.83444530625115, 18.92837725934008], [72.83547869951911, 18.930741458490843], [72.836776449203, 18.932605515000347], [72.83634386597564, 18.93560614763625], [72.83718366514051, 18.938561107517643], [72.83762883324641, 18.942192795771703], [72.8376844792597, 18.945719142101524], [72.83718366514051, 18.94782438797786], [72.83712801912722, 18.9518769115231], [72.83751754122002, 18.95498202530233], [72.83863046148491, 18.95898174770751], [72.84074500998719, 18.961086826239054], [72.84096759404014, 18.96298137419855], [72.83762883324641, 18.96450752217889], [72.83406748839877, 18.963560259559557], [72.83273198408082, 18.961034199599595], [72.83467959454441, 18.953508419188495], [72.83384490434577, 18.95145587469713], [72.82961580734022, 18.952350576682363], [72.82427379006862, 18.954560996312253], [72.820489861169, 18.95682401463982], [72.81742933044049, 18.957508176926595], [72.8137566935674, 18.95956064695244], [72.81247683526271, 18.96219198183121], [72.81236554323627, 18.96561265509969], [72.81492525984441, 18.9712434566988], [72.8138568877024, 18.974332218474814], [72.8131770482714, 18.97561801331578], [72.8084181722543, 18.977897352512827], [72.8101486726242, 18.97953378193685], [72.813238851856, 18.981520853198475], [72.81342426260991, 18.98444297375653], [72.81113752997831, 18.9868975154058], [72.8118882978564, 18.987186352116254], [72.81395103768531, 18.992369334465522], [72.81574292911938, 18.996726162833625], [72.81738854370306, 18.99873164867175], [72.81694971314761, 19.00056422666654], [72.81749825134119, 19.002154749697198], [72.81921700434935, 19.0028808529826], [72.82053349601571, 19.004367626012524], [72.82027913237013, 19.006695220198452], [72.82139159689365, 19.008974133927524], [72.82077356104725, 19.01212950138411], [72.81978470369305, 19.0137655942724], [72.81990831086233, 19.016219703418656], [72.81861043558615, 19.018206336670545], [72.81823961407832, 19.021127813025856], [72.81731256030872, 19.02352338531881], [72.81867223917081, 19.021945817203502], [72.81929027501718, 19.019141214690293], [72.82052634670873, 19.017972616343783], [72.82275127575565, 19.017505174704382], [72.82126798972439, 19.01703773175059], [72.8232457044328, 19.01586911861564], [72.82423456178694, 19.0137655942724], [72.82491440121802, 19.010610257859412], [72.82608866932611, 19.010727123238738], [72.82868441988086, 19.01025966122883], [72.8304149202495, 19.008156065925064], [72.8310329560959, 19.00950003266024], [72.8363480643747, 19.013239709028213], [72.83807856474459, 19.015051084533553], [72.84036529737497, 19.016804009780813], [72.8433936730222, 19.020543521862635], [72.8448151554689, 19.022705388906232], [72.84456794113032, 19.02469194463778], [72.84648385225407, 19.0286065584758], [72.84753451319293, 19.029891933948974], [72.84802894187001, 19.03240423001941], [72.84938862073088, 19.036260238434622], [72.8490796028089, 19.03853874677509], [72.84722549526973, 19.039473510383075], [72.8471636916851, 19.042277769629038], [72.84605122716161, 19.043796723608367], [72.84320826226829, 19.04385514463769], [72.84129235114455, 19.045081981503387], [72.83943824360662, 19.044030407602264], [72.83820217191385, 19.04192723981383], [72.83776954682139, 19.044497774603073], [72.83653347512865, 19.04671774988344], [72.8363480643747, 19.0478861459991], [72.83931463643734, 19.047769306757644], [72.84197219057555, 19.048704018385337], [72.84216910015493, 19.050529662527822], [72.84402287151735, 19.05138210254684], [72.84697888530891, 19.05133474488288], [72.84873245281398, 19.050529662527822], [72.85217850004727, 19.052214992905633], [72.85611884193204, 19.05575986713204], [72.85828883182032, 19.05736226348222], [72.86127256791667, 19.05646492343331], [72.86473098929977, 19.055311193379964], [72.86859628378829, 19.051401270748144], [72.87110533459662, 19.049670619835894], [72.87659812149997, 19.051465368583422], [72.87741186770802, 19.05018340717328], [72.87842905046821, 19.046016964190187], [72.8793106088603, 19.043517048192413], [72.8801243550684, 19.037299145132735], [72.87903936012427, 19.03377342654828], [72.87754749207608, 19.027298730227315], [72.87693718242002, 19.023388147846774], [72.87903936012427, 19.019990354012947], [72.88215872058865, 19.016977157973926], [72.88446433484495, 19.01607959965952], [72.88473558358098, 19.014092131861688], [72.884871207949, 19.012104640306944], [72.88366971833901, 19.00878309463127], [72.88027375695475, 19.00722108862415], [72.8780709711919, 19.00626652217622], [72.87439966158917, 19.00626652217622], [72.87201331034618, 19.006873974185993], [72.8709119174647, 19.004878052109603], [72.86925982814265, 19.005051611501713], [72.86733239060024, 19.00409703260422], [72.86577208401826, 19.004530932782174], [72.86421177743628, 19.002795325280516], [72.86182542619329, 19.00210107721091], [72.8612288806284, 19.001529573930256], [72.85827361426993, 19.000553806971496], [72.85700707154535, 19.00170698548891], [72.85660834513038, 19.00855936219625], [72.85456780407415, 19.007251001392063], [72.85341853382369, 19.005942630295337], [72.85233962705661, 19.00818237793561], [72.85301980740874, 19.010887775458244], [72.85276180796603, 19.013482254690317], [72.85428635013514, 19.015500154994513], [72.8560923462432, 19.01352660441073], [72.85719470750468, 19.01022251785261], [72.857634208462, 19.015114532289957], [72.85822160293068, 19.01733588510207], [72.86131521379443, 19.018705704540807], [72.86413470724045, 19.020038490997663], [72.86562277322588, 19.017928240839197], [72.8668367217922, 19.015447737104026], [72.86883386298243, 19.019372099105098], [72.86831653942568, 19.021728753847228], [72.86831653942568, 19.024263763134655], [72.87016375987662, 19.02820703404818], [72.86921035577288, 19.03029129657935], [72.86670767000078, 19.02544675423505], [72.86289405358721, 19.023362430929083], [72.86122559640577, 19.02837602928163], [72.85776950652985, 19.027024062600688], [72.85842497185115, 19.029502659778046], [72.85842497185115, 19.031586906052155], [72.86211941275297, 19.031248921947338], [72.86378786993438, 19.03209388092148], [72.864979625064, 19.034628732056063], [72.86748231083502, 19.03507936820739], [72.86909118025994, 19.033333146309758], [72.87189180481454, 19.031812228407347], [72.87218974359689, 19.034516072827145], [72.87195139257099, 19.037276201933338], [72.86974664558122, 19.037501516569662], [72.86855489045163, 19.039529334537846], [72.87153427827559, 19.04262734194147], [72.87218974359689, 19.044993054117683], [72.86795901288684, 19.047809334172157], [72.86664808224424, 19.045837943152023], [72.86605220468064, 19.04764035871662], [72.86539673935937, 19.0510198351342], [72.86200023723995, 19.05040026961001], [72.8615235351881, 19.04730240728935], [72.86200023723995, 19.043810202244188], [72.86414539647322, 19.04972437730879], [72.86438374749918, 19.043134283103328], [72.86414539647322, 19.04026159605094], [72.86205982499644, 19.038740741604187], [72.85985507800666, 19.04155712773789], [72.8591400249289, 19.04521835828072], [72.85842497185115, 19.04792198438028], [72.85490929422, 19.04775300903944], [72.85520723300243, 19.04572529152928], [72.85324083703856, 19.04431713979359], [72.85461135543761, 19.04285264931562], [72.856279812619, 19.0416697821895], [72.85741197999096, 19.038684413394193], [72.8561010493496, 19.03609329507681], [72.85520723300243, 19.032488193638912], [72.85484970646348, 19.02972798496043], [72.85359836357748, 19.0277000473164], [72.85484970646348, 19.02589741529603], [72.85270454723025, 19.022686428566686], [72.85109567780523, 19.01586991777137], [72.84334372012887, 19.01001788909855], [72.84275401453291, 19.00723014564379], [72.8409848977451, 19.005743330029247], [72.83803636976543, 19.001561589867862], [72.83803636976543, 18.998587844029743], [72.83607068444567, 18.996729225894796], [72.83567754738169, 18.994405924038418], [72.83420328339184, 18.992640192938367], [72.83607068444567, 18.98827225133168], [72.83803636976543, 18.988179315158874], [72.83833122256343, 18.985391205855095], [72.84039519214917, 18.98650645517833], [72.84265573026696, 18.985948831450244], [72.85474469498175, 18.992547259203747], [72.85631724323756, 18.99431299128952], [72.85572753764166, 18.996357499776963], [72.85651381176956, 18.998216122063354], [72.85946233974926, 18.999424215418202], [72.86015032961123, 18.99886663495964], [72.86083831947315, 18.995799909044393], [72.85975719254719, 18.994777654514834], [72.85779150722743, 18.99431299128952], [72.85651381176956, 18.99319779425656], [72.86083831947315, 18.981766593976758], [72.85769322296147, 18.978513670009235], [72.8497321974163, 18.980093669584477], [72.84992876594822, 18.981673654173463], [72.84639053237456, 18.974331245865812], [72.84432656278878, 18.974424189765102], [72.84304886733094, 18.97739836716964], [72.84373685719285, 18.978978377322193], [72.84304886733094, 18.980558372490094], [72.84275401453291, 18.982974806700554], [72.8409848977451, 18.982603049872836], [72.8398054865533, 18.980930133881188], [72.83577583164765, 18.980186610269342], [72.83410499912586, 18.97879249455255], [72.83312215646595, 18.975353625906692], [72.83174617674212, 18.972937081156957], [72.8321393138061, 18.96996282412968], [72.83489127325373, 18.966988514029353], [72.83813465403139, 18.965780185393626], [72.84452313132078, 18.962248097629043], [72.84707852223457, 18.963549401826185], [72.8486118552739, 18.962617103160667], [72.84675352165809, 18.954164231066144], [72.84454121973621, 18.947970765780298], [72.84153248912017, 18.945459835990903], [72.83967415550438, 18.938847540189357], [72.84055907627382, 18.934746111210302], [72.8397626475813, 18.931565341841292], [72.83976138831264, 18.930731796812452], [72.83741689928493, 18.9291054908945], [72.83647910367341, 18.929253337541198], [72.83585154632891, 18.929529332413708], [72.8350391315636, 18.928210688846264], [72.83510375546484, 18.927774049610193], [72.8364476950656, 18.926286184279235], [72.83872862664452, 18.923357964419722], [72.84041217138136, 18.920840681775204], [72.83905447401298, 18.92063518764067], [72.83753385296035, 18.920840681775204], [72.83552446085511, 18.923357964419722], [72.83481845822354, 18.923820318335004], [72.83277870209864, 18.92007539105589], [72.83016994525721, 18.916667427639865], [72.82967303919196, 18.91525721556171], [72.83045478043445, 18.914183867024633], [72.8281627194192, 18.912015551459305], [72.82683573672614, 18.912243796527008], [72.82562938882342, 18.91287146885692], [72.82484526268655, 18.912243796527008], [72.82538811924283, 18.910988444799628], [72.82623256277475, 18.909961331832037], [72.8258103410088, 18.908820087803534], [72.82484526268655, 18.907964149673177], [72.82345796259835, 18.909333648580002], [72.82225161469677, 18.91076019801862], [72.82146748855996, 18.910417827263032], [72.82044209284263, 18.91007545580659], [72.82009007934815, 18.909183221446767], [72.82040719240459, 18.90828322036785], [72.81969368802748, 18.907533215769533], [72.81901982278325, 18.90749571545132], [72.81790992708551, 18.907420714789737], [72.81731534010541, 18.90644570312888], [72.81771173142599, 18.905470685785986], [72.8175531748978, 18.90415815346526], [72.81736697927391, 18.90129788273711], [72.81646630775714, 18.899667759876223], [72.81525235919082, 18.898296962453358], [72.81470412435414, 18.897222545813207], [72.81427336841023, 18.896185171478322], [72.81321605836871, 18.895184840137844], [72.81256844970389, 18.894761824269494], [72.81115719194605, 18.894850838384613], [72.81012226958916, 18.89431675298073], [72.80952640520289, 18.89318923375454], [72.80834431783344, 18.892555192946887]]], "type": "Polygon"}}]}