{"type": "FeatureCollection", "name": "Redevelopment_Project_Plan", "features": [{"type": "Feature", "properties": {"Height": 3, "Type": "Amenities "}, "geometry": {"type": "Polygon", "coordinates": [[[72.82048679402524, 19.000288820208695], [72.82053082413444, 19.000600164403238], [72.82087821231767, 19.000561804324647], [72.82081607896393, 19.00024718899047], [72.82048679402524, 19.000288820208695]]]}}, {"type": "Feature", "properties": {"Height": 3, "Type": "Amenities "}, "geometry": {"type": "Polygon", "coordinates": [[[72.81893471483167, 19.000457248944244], [72.81878223032231, 19.00054324546251], [72.81893793671566, 19.00081267095473], [72.81907809490977, 19.00072267314637], [72.81893471483167, 19.000457248944244]]]}}, {"type": "Feature", "properties": {"Height": 3, "Type": "Amenities "}, "geometry": {"type": "Polygon", "coordinates": [[[72.81868365281207, 19.00059462736293], [72.81852962338729, 19.00066969946849], [72.8186737759222, 19.00094058549479], [72.81882703289017, 19.00086005134588], [72.81868365281207, 19.00059462736293]]]}}, {"type": "Feature", "properties": {"Height": 3, "Type": "Amenities "}, "geometry": {"type": "Polygon", "coordinates": [[[72.81884012293949, 19.003766160049622], [72.81850626928014, 19.00394180140293], [72.81864655952552, 19.004185371824164], [72.81898696257272, 19.004014462433815], [72.81884012293949, 19.003766160049622]]]}}, {"type": "Feature", "properties": {"Height": 3, "Type": "Amenities "}, "geometry": {"type": "Polygon", "coordinates": [[[72.81974853347623, 19.005324784001047], [72.81942122920287, 19.005505155372163], [72.81959003436833, 19.005784036140028], [72.81991733864169, 19.00560366507132], [72.81974853347623, 19.005324784001047]]]}}, {"type": "Feature", "properties": {"Height": 29, "Type": "Commercial"}, "geometry": {"type": "Polygon", "coordinates": [[[72.81784218872562, 19.002752577855816], [72.81808246934543, 19.002622124050077], [72.81819538685005, 19.002796880180057], [72.81837175153132, 19.002713425483947], [72.8188820293226, 19.003577390808942], [72.81846615648021, 19.003796760131365], [72.81784218872562, 19.002752577855816]]]}}, {"type": "Feature", "properties": {"Height": 1, "Type": "Police"}, "geometry": {"type": "Polygon", "coordinates": [[[72.81792515200911, 19.002174992221526], [72.81758128940851, 19.00236302021328], [72.81774277272928, 19.002631712397218], [72.81807662639054, 19.002456069660767], [72.81792515200911, 19.002174992221526]]]}}, {"type": "Feature", "properties": {"Height": 40, "Type": "Rehab"}, "geometry": {"type": "Polygon", "coordinates": [[[72.82050983584267, 19.004983909974925], [72.82038969553273, 19.005049135964583], [72.82044403827814, 19.00514233997781], [72.8203504652385, 19.005187528084036], [72.82040480798389, 19.005280732019727], [72.82051416689393, 19.00522242884385], [72.82055541086729, 19.005306169421402], [72.82066476977735, 19.00524786625442], [72.82062352580402, 19.00516412564754], [72.82071209437487, 19.005125129911335], [72.82065543425358, 19.00501553980243], [72.8205445304281, 19.00506291899667], [72.82050983584267, 19.004983909974925]]]}}, {"type": "Feature", "properties": {"Height": 40, "Type": "Rehab"}, "geometry": {"type": "Polygon", "coordinates": [[[72.81974047433263, 19.003452181231964], [72.8196303429639, 19.003505022950364], [72.8195971932939, 19.003436937349505], [72.81948128499602, 19.003490509430577], [72.81953485528459, 19.0035782522407], [72.81944128224313, 19.003623440771776], [72.81948984806115, 19.00371737594145], [72.81959420250061, 19.003665264648376], [72.81964199585994, 19.00375373772296], [72.81975713169925, 19.00369470365503], [72.81971011079855, 19.003611692623565], [72.81980291138134, 19.003561042012393], [72.81974047433263, 19.003452181231964]]]}}, {"type": "Feature", "properties": {"Height": 40, "Type": "Rehab"}, "geometry": {"type": "Polygon", "coordinates": [[[72.81931459254722, 19.0036839355798], [72.81921601503697, 19.003735316510287], [72.81916976659309, 19.003657767572136], [72.8190430768953, 19.0037182623677], [72.8190827759532, 19.0037910795656], [72.81900152922702, 19.00384026939335], [72.8190762925928, 19.003953131270734], [72.81917987457362, 19.00389555798644], [72.81923999424822, 19.003988032289513], [72.81932201343128, 19.003944304569956], [72.81926689822723, 19.003845637818813], [72.81937471222184, 19.003776410001336], [72.81931459254722, 19.0036839355798]]]}}, {"type": "Feature", "properties": {"Height": 40, "Type": "Rehab"}, "geometry": {"type": "Polygon", "coordinates": [[[72.81923421732088, 19.003988762646003], [72.8192966543696, 19.004097623075324], [72.81918652300084, 19.004150464587852], [72.8192562818943, 19.004269518663904], [72.81936409588889, 19.004200291022812], [72.81941998355157, 19.004304419616304], [72.81950777966199, 19.004259961624612], [72.81944957462704, 19.004139446831815], [72.81953814319607, 19.004100450855418], [72.81948726000402, 19.003990129715874], [72.8193821331059, 19.004036778846753], [72.81931546404519, 19.003939572862137], [72.81923421732088, 19.003988762646003]]]}}, {"type": "Feature", "properties": {"Height": 40, "Type": "Rehab"}, "geometry": {"type": "Polygon", "coordinates": [[[72.81941998355157, 19.004304419616304], [72.81947587121238, 19.00440854814461], [72.81937151677295, 19.004460659204838], [72.8194354987389, 19.00458044341191], [72.81954408519039, 19.004516677945062], [72.81959920039446, 19.00461534429907], [72.81968776896522, 19.004576348434227], [72.81963110884394, 19.004466757963783], [72.81973045881284, 19.00442083930804], [72.81966069991944, 19.004301785341156], [72.81956289486607, 19.00435862813086], [72.81950200273457, 19.00426069197988], [72.81941998355157, 19.004304419616304]]]}}, {"type": "Feature", "properties": {"Height": 40, "Type": "Rehab"}, "geometry": {"type": "Polygon", "coordinates": [[[72.81959920039446, 19.00461534429907], [72.8196600925277, 19.004713280241248], [72.81955073361763, 19.004771583595584], [72.81962049251098, 19.004890637226268], [72.81972407449365, 19.004833064266435], [72.81977918969767, 19.004931730431906], [72.81986698580806, 19.00488727260874], [72.81981687507465, 19.004782414027957], [72.81990967565744, 19.004731763773236], [72.81984146167952, 19.004623634111695], [72.81974211171067, 19.0046695527123], [72.81968121957743, 19.0045716167444], [72.81959920039446, 19.00461534429907]]]}}, {"type": "Feature", "properties": {"Height": 40, "Type": "Rehab"}, "geometry": {"type": "Polygon", "coordinates": [[[72.81977918969767, 19.004931730431906], [72.81984008182917, 19.005029666187838], [72.81972995046047, 19.005082507405177], [72.81979970935569, 19.005201560813376], [72.81990829580704, 19.00513779558547], [72.81996341101112, 19.005236461571087], [72.82004620265275, 19.005198196202173], [72.81999454700386, 19.005082413764498], [72.82008311557294, 19.005043418009166], [72.82002645545342, 19.004933827846415], [72.81992710548275, 19.004979746360547], [72.8198612088807, 19.004888002960442], [72.81977918969767, 19.004931730431906]]]}}, {"type": "Feature", "properties": {"Height": 40, "Type": "Rehab"}, "geometry": {"type": "Polygon", "coordinates": [[[72.81995686162509, 19.00523172989915], [72.82001929867383, 19.005340589515114], [72.81991571669116, 19.00539816230018], [72.8199789261985, 19.005512483819317], [72.82007172678132, 19.00546183378775], [72.82011797522523, 19.005539381884887], [72.82023888799193, 19.005479618100708], [72.82019609910316, 19.005384953577448], [72.82027811828615, 19.005341226224246], [72.8202303249268, 19.005252753993872], [72.82013020250113, 19.005293210399927], [72.8200512071233, 19.005192003828498], [72.81995686162509, 19.00523172989915]]]}}, {"type": "Feature", "properties": {"Height": 40, "Type": "Rehab"}, "geometry": {"type": "Polygon", "coordinates": [[[72.82062077925863, 19.004063652154954], [72.82066780015938, 19.004146662961716], [72.82057345466109, 19.00418638928204], [72.82064244109768, 19.004299981279743], [72.82074024615113, 19.004243138469974], [72.82077494073656, 19.00432214784439], [72.82089739842053, 19.004273307729605], [72.8208422832165, 19.004174641172725], [72.82093585625614, 19.00412945279224], [72.82088806289673, 19.004040979916553], [72.82078794046927, 19.004081436617355], [72.82073668755655, 19.004010080258425], [72.82062077925863, 19.004063652154954]]]}}, {"type": "Feature", "properties": {"Height": 40, "Type": "Rehab"}, "geometry": {"type": "Polygon", "coordinates": [[[72.82112131879185, 19.004650856895566], [72.82100040602333, 19.004710620976724], [72.82104742692411, 19.004793631460657], [72.82095385388445, 19.004838819661614], [72.82101783584858, 19.004958603596407], [72.82111641336067, 19.004907223043716], [72.8211626618027, 19.00498477139938], [72.82127779764207, 19.004925737768275], [72.82122923182584, 19.004831803280965], [72.82131625547945, 19.00478188339423], [72.82127000703554, 19.004704334943966], [72.8211641076806, 19.004745521837435], [72.82112131879185, 19.004650856895566]]]}}, {"type": "Feature", "properties": {"Height": 40, "Type": "Rehab"}, "geometry": {"type": "Polygon", "coordinates": [[[72.82124347935581, 19.003851493107916], [72.82119645845506, 19.003768482154683], [72.82107554568654, 19.003828246552786], [72.82111601720126, 19.0039065257683], [72.82102244416157, 19.00395171421023], [72.82109143059634, 19.004065306368133], [72.82119501257901, 19.00400773312181], [72.82125513225364, 19.004100207363393], [72.82133792389527, 19.004061941733056], [72.82128704070325, 19.003951620568017], [72.82138061374289, 19.003906432126072], [72.82131817669412, 19.003797571571624], [72.82124347935581, 19.003851493107916]]]}}, {"type": "Feature", "properties": {"Height": 40, "Type": "Rehab"}, "geometry": {"type": "Polygon", "coordinates": [[[72.82135988942935, 19.004092523024198], [72.82127864270495, 19.004141712761978], [72.82133453036573, 19.00424584139209], [72.82124095732613, 19.00429102974188], [72.82130339437487, 19.004399889973413], [72.82139619495774, 19.004349239603044], [72.82145708709098, 19.004447175701927], [72.82154488320137, 19.004402717748334], [72.82148976799732, 19.004304051269102], [72.82159334997996, 19.004246478105443], [72.82153091293125, 19.004137617773452], [72.82142078156261, 19.0041904592742], [72.82135988942935, 19.004092523024198]]]}}, {"type": "Feature", "properties": {"Height": 40, "Type": "Rehab"}, "geometry": {"type": "Polygon", "coordinates": [[[72.82145131016173, 19.00444790605549], [72.82151451966908, 19.00456222822858], [72.82141093768644, 19.004619801282132], [72.82146450797507, 19.00470754349753], [72.82156308548528, 19.004656162867306], [72.82160510191727, 19.004745365768088], [72.82172601468389, 19.004685601699478], [72.82167744886777, 19.00459166707651], [72.8217725668228, 19.004557402896452], [72.82171012977412, 19.004448542768017], [72.82159999840542, 19.004501384169984], [72.82153910627395, 19.00440344810302], [72.82145131016173, 19.00444790605549]]]}}, {"type": "Feature", "properties": {"Height": 40, "Type": "Rehab"}, "geometry": {"type": "Polygon", "coordinates": [[[72.82063022039858, 19.003589881755317], [72.82050853517333, 19.003644184144278], [72.82046729119998, 19.003560442729267], [72.82035793228985, 19.003618746487646], [72.82040495319063, 19.003701757515543], [72.82031060769236, 19.003741483942974], [72.82038036658571, 19.003860538310803], [72.82047239470995, 19.003804425707344], [72.82051286622462, 19.003882704934085], [72.82063377899311, 19.00382294055467], [72.82058675809239, 19.003739929587226], [72.82067223682876, 19.003679085227873], [72.82063022039858, 19.003589881755317]]]}}, {"type": "Feature", "properties": {"Height": 40, "Type": "Rehab"}, "geometry": {"type": "Polygon", "coordinates": [[[72.8198603505362, 19.00271981767159], [72.81975021916759, 19.00277265962174], [72.81981420113351, 19.002892445044196], [72.81991778311439, 19.002834871392878], [72.81995825462909, 19.00291315107492], [72.82007339046834, 19.002854116708704], [72.82002482465037, 19.002760181052466], [72.82010684383334, 19.0027164530093], [72.82005982293262, 19.002633441489763], [72.81995970050511, 19.002673898533686], [72.81991845653363, 19.002590156630276], [72.81979253929447, 19.002656113920807], [72.8198603505362, 19.00271981767159]]]}}, {"type": "Feature", "properties": {"Height": 40, "Type": "Rehab"}, "geometry": {"type": "Polygon", "coordinates": [[[72.82037245050287, 19.00234928682734], [72.82024730572238, 19.00242070632703], [72.8203001035524, 19.002502987590574], [72.82020653051273, 19.002548176413754], [72.82026087325815, 19.002641381828127], [72.82035945077024, 19.002590000559763], [72.82043266921693, 19.002691939076357], [72.82051468839995, 19.00264821101611], [72.82046535012512, 19.002548813133515], [72.82056970456458, 19.002496701474413], [72.82051227198647, 19.0023816475193], [72.82041947140362, 19.002432298488685], [72.82037245050287, 19.00234928682734]]]}}, {"type": "Feature", "properties": {"Height": 40, "Type": "Rehab"}, "geometry": {"type": "Polygon", "coordinates": [[[72.82043266921693, 19.002691939076357], [72.82049433380885, 19.0027953382522], [72.82040076076734, 19.002840526995968], [72.82046474273335, 19.002960312369524], [72.82056332024362, 19.00290893119967], [72.82061766299083, 19.003002136411965], [72.82069968217385, 19.002958408433244], [72.82064957144036, 19.002853548636736], [72.82075469833842, 19.002806899174047], [72.8206914888311, 19.002692575795592], [72.8205813574624, 19.002745417754426], [72.82051546085856, 19.00265367312214], [72.82043266921693, 19.002691939076357]]]}}, {"type": "Feature", "properties": {"Height": 40, "Type": "Rehab"}, "geometry": {"type": "Polygon", "coordinates": [[[72.82071664323723, 19.002995182382904], [72.82063962852482, 19.003032717897966], [72.82069051171692, 19.003143039672324], [72.82059616621862, 19.003182766232342], [72.82066592511202, 19.00330182100086], [72.820752176307, 19.003246438567828], [72.82081884536947, 19.00334364495744], [72.82090086455247, 19.003299917068503], [72.82084497688979, 19.003195787846295], [72.82094933132927, 19.00314367638984], [72.82088689428053, 19.003034815336335], [72.82078253984108, 19.003086926826867], [72.82071664323723, 19.002995182382904]]]}}, {"type": "Feature", "properties": {"Height": 40, "Type": "Rehab"}, "geometry": {"type": "Polygon", "coordinates": [[[72.82081306844029, 19.003344375315876], [72.82087550548894, 19.003453236167744], [72.8207734684236, 19.00352173376112], [72.82082126178298, 19.00361020691294], [72.82092561622238, 19.0035580955863], [72.82096686019571, 19.003641837002476], [72.82108777296241, 19.003582072536588], [72.82104652899093, 19.003498331090285], [72.82112932063256, 19.003460065321548], [72.821066883582, 19.003351204475038], [72.82096175668573, 19.003397853785117], [72.82090086455247, 19.003299917068503], [72.82081306844029, 19.003344375315876]]]}}, {"type": "Feature", "properties": {"Height": 40, "Type": "Rehab"}, "geometry": {"type": "Polygon", "coordinates": [[[72.82218603427216, 19.0040992709869], [72.82219725142014, 19.004220166592802], [72.82207670837587, 19.004240966099474], [72.8220856081497, 19.00434547545207], [72.82221270058176, 19.004329407655334], [72.82221505096965, 19.00442918525765], [72.82234714787225, 19.004406925066135], [72.82233902055529, 19.00430787780465], [72.82243145141564, 19.004296192132557], [72.82241522979712, 19.0041814889925], [72.82229969122164, 19.00419609609328], [72.82227923759118, 19.004093047357998], [72.82218603427216, 19.0040992709869]]]}}, {"type": "Feature", "properties": {"Height": 40, "Type": "Rehab"}, "geometry": {"type": "Polygon", "coordinates": [[[72.82217833168647, 19.004100244795197], [72.82216056515068, 19.003974617395315], [72.82205080350442, 19.003988494157767], [72.8220453632857, 19.003866868026478], [72.82214279861665, 19.00384898989975], [72.8221346712997, 19.0037499423061], [72.82223865601668, 19.0037367958805], [72.82224910070781, 19.003852229683318], [72.82236386682467, 19.003832160484393], [72.82238741028786, 19.00395705763691], [72.82226609478491, 19.003972395113067], [72.82227653947425, 19.004087828752418], [72.82217833168647, 19.004100244795197]]]}}, {"type": "Feature", "properties": {"Height": 40, "Type": "Rehab"}, "geometry": {"type": "Polygon", "coordinates": [[[72.82212889437042, 19.003750672662775], [72.82211035537784, 19.003619582923932], [72.82198903987498, 19.00363492043209], [72.82197436317182, 19.003531140991583], [72.82209490621611, 19.003510341396165], [72.82207676995972, 19.003423678480573], [72.82220386239183, 19.00340761059482], [72.82222199865004, 19.003494273518783], [72.82231943397917, 19.003476395351115], [72.82233142358575, 19.003602753485396], [72.82221088054152, 19.003623553069218], [72.82223287908926, 19.003737526237174], [72.82212889437042, 19.003750672662775]]]}}, {"type": "Feature", "properties": {"Height": 40, "Type": "Rehab"}, "geometry": {"type": "Polygon", "coordinates": [[[72.82160360974407, 19.00194900370458], [72.82148807117045, 19.00196361100133], [72.82147416692413, 19.00186529265021], [72.82134129756463, 19.001882091050646], [72.82135442935044, 19.001974947262894], [72.8212612260333, 19.001981170970154], [72.82127976502588, 19.002112261999912], [72.82140030807193, 19.002091462227142], [72.82141652969045, 19.002206166808165], [72.82150241116301, 19.002189749229956], [72.82149697094428, 19.002068121783708], [72.82161751399039, 19.002047322005396], [72.82160360974407, 19.00194900370458]]]}}, {"type": "Feature", "properties": {"Height": 40, "Type": "Rehab"}, "geometry": {"type": "Polygon", "coordinates": [[[72.8214099803044, 19.002201435050893], [72.82142620192297, 19.002316139556072], [72.82130488641823, 19.002331477183517], [72.82132920234002, 19.00246183757497], [72.82144474091558, 19.002447230321934], [72.82146596700466, 19.002555742185862], [72.821558397865, 19.00254405638981], [72.82153985887243, 19.00241296570023], [72.82165039297732, 19.00240455092056], [72.821634171357, 19.00228984647633], [72.82152440971075, 19.002303723380194], [72.82150241116301, 19.002189749229956], [72.8214099803044, 19.002201435050893]]]}}, {"type": "Feature", "properties": {"Height": 40, "Type": "Rehab"}, "geometry": {"type": "Polygon", "coordinates": [[[72.82156110697312, 19.00257707250077], [72.82146367164216, 19.00259495076419], [72.82147989326074, 19.002709654998114], [72.8213635822284, 19.002718800124384], [72.82137711675043, 19.00285608303379], [72.82149688733787, 19.0028298212531], [72.82151888588564, 19.00294379496485], [72.82160553981674, 19.00293283955628], [72.8215935502102, 19.00280648091322], [72.8217090887857, 19.00279187369047], [72.8216870902379, 19.002677899875493], [72.82157732859167, 19.002691776746104], [72.82156110697312, 19.00257707250077]]]}}, {"type": "Feature", "properties": {"Height": 40, "Type": "Rehab"}, "geometry": {"type": "Polygon", "coordinates": [[[72.82151233649955, 19.002939063228553], [72.8215351075041, 19.003058498958197], [72.82141379200127, 19.00307383651719], [72.82143233099384, 19.00320492668689], [72.8215355432541, 19.003186318128996], [72.82154790258306, 19.003273711527015], [72.82168077194254, 19.003256913267904], [72.8216653227827, 19.00314767150114], [72.82177007995833, 19.003139987118843], [72.82176272509992, 19.003046401196187], [72.821645641609, 19.0030500842103], [72.82160476735811, 19.002927377459443], [72.82151233649955, 19.002939063228553]]]}}, {"type": "Feature", "properties": {"Height": 40, "Type": "Rehab"}, "geometry": {"type": "Polygon", "coordinates": [[[72.82213047887828, 19.002888712035954], [72.82198682811708, 19.00291243315131], [72.82201228621997, 19.003009290162964], [72.82189752010129, 19.00302935946118], [72.82191219680442, 19.003133139214683], [72.82201540906465, 19.00311453064876], [72.82202854085043, 19.003207386173187], [72.82216718714099, 19.003189857547397], [72.82216137719982, 19.003107195837003], [72.82225958498759, 19.003094779720087], [72.82224104599501, 19.002963689463627], [72.82213706127797, 19.00297683595123], [72.82213047887828, 19.002888712035954]]]}}, {"type": "Feature", "properties": {"Height": 40, "Type": "Rehab"}, "geometry": {"type": "Polygon", "coordinates": [[[72.8218315640485, 19.001814547865663], [72.82184624075165, 19.00191832837693], [72.82173647910543, 19.001932205311746], [72.82175693273774, 19.00203525538457], [72.82186514946855, 19.002010454203784], [72.82188059862841, 19.00211969671726], [72.82201269553113, 19.002097436216687], [72.82199879128669, 19.001999117945516], [72.82210932539152, 19.00199070314403], [72.82208809930063, 19.001882190911587], [72.82198256966811, 19.001884413221745], [72.82196520586857, 19.001803211593156], [72.8218315640485, 19.001814547865663]]]}}, {"type": "Feature", "properties": {"Height": 40, "Type": "Rehab"}, "geometry": {"type": "Polygon", "coordinates": [[[72.82125012107832, 19.000197873241845], [72.82110569785848, 19.000216132554982], [72.82111805718756, 19.000303527513964], [72.82102562632898, 19.00031521346652], [72.82103838839231, 19.000447036180915], [72.82114737757993, 19.000427696943305], [72.82117014858639, 19.000547134475724], [72.8212725883879, 19.000523063443907], [72.8212621436968, 19.000407627331256], [72.82138191428604, 19.00038136516497], [72.82136878249844, 19.000288508063363], [72.82125902085221, 19.000302385134148], [72.82125012107832, 19.000197873241845]]]}}, {"type": "Feature", "properties": {"Height": 40, "Type": "Rehab"}, "geometry": {"type": "Polygon", "coordinates": [[[72.82116359920028, 19.0005424026713], [72.82118559774801, 19.000656377949085], [72.82107660855863, 19.000675717160092], [72.82109437509442, 19.000801347051762], [72.82120413674059, 19.000787470022615], [72.82121958590238, 19.00089671333903], [72.82131702123155, 19.000878834892276], [72.82131158101285, 19.00075720648772], [72.82142211511771, 19.000748791624304], [72.82139934411131, 19.000629354236665], [72.8213011363217, 19.0006417705375], [72.82127336084653, 19.000528525620524], [72.82116359920028, 19.0005424026713]]]}}, {"type": "Feature", "properties": {"Height": 40, "Type": "Rehab"}, "geometry": {"type": "Polygon", "coordinates": [[[72.82133282911354, 19.00092131492137], [72.82123462132392, 19.000933731200448], [72.82124429355639, 19.001043704788557], [72.82112220559492, 19.001053580374943], [72.82114729397534, 19.001189403922524], [72.82127438640748, 19.001173335821008], [72.82128405863998, 19.001283309251633], [72.82137726195717, 19.001277085518225], [72.82136026788001, 19.001156918140907], [72.82147002952624, 19.001143041141432], [72.82145226299042, 19.001017411508613], [72.82135983213186, 19.001029097411035], [72.82133282911354, 19.00092131492137]]]}}, {"type": "Feature", "properties": {"Height": 40, "Type": "Rehab"}, "geometry": {"type": "Polygon", "coordinates": [[[72.82127828171076, 19.00128403961908], [72.82129450332926, 19.001398744756713], [72.82117241536776, 19.001408620322024], [72.82119750374824, 19.001544443578965], [72.82131226986505, 19.00152437410246], [72.82131807980619, 19.001607036599324], [72.82143939531088, 19.001591698905102], [72.82142626352325, 19.001498842478995], [72.82152947578345, 19.001480233730277], [72.8215213484664, 19.00138118472644], [72.82140503743415, 19.00139032992577], [72.82136994011248, 19.00126689158236], [72.82127828171076, 19.00128403961908]]]}}, {"type": "Feature", "properties": {"Height": 40, "Type": "Rehab"}, "geometry": {"type": "Polygon", "coordinates": [[[72.8218964240894, 19.00123368792559], [72.82175122841281, 19.001246484973038], [72.82176590511585, 19.001350265838653], [72.82166269285563, 19.001368874601894], [72.82167659710007, 19.001467193245517], [72.82178058181898, 19.00145404663951], [72.82180026299261, 19.001551634866487], [72.82193313235211, 19.001534836433564], [72.82192654995234, 19.00144671175454], [72.82202475774196, 19.001434295513747], [72.82200699120614, 19.001308666099973], [72.82190300648915, 19.00132181271745], [72.8218964240894, 19.00123368792559]]]}}, {"type": "Feature", "properties": {"Height": 40, "Type": "Rehab"}, "geometry": {"type": "Polygon", "coordinates": [[[72.82173846192768, 19.000130572830372], [72.82159481116648, 19.000154294338955], [72.82161526479888, 19.00025734551376], [72.82150473069396, 19.000265760402073], [72.82152017985572, 19.000375004060174], [72.82162916904332, 19.000355664814194], [72.82163806881715, 19.000460176606524], [72.82178749650757, 19.000435724770327], [72.82176858779249, 19.000343598070728], [72.82186756803893, 19.000336643929685], [72.82185057396174, 19.000216475874012], [72.82174581678609, 19.000224160392236], [72.82173846192768, 19.000130572830372]]]}}, {"type": "Feature", "properties": {"Height": 66, "Type": "Sale"}, "geometry": {"type": "Polygon", "coordinates": [[[72.81785473285188, 19.00038807592675], [72.81779152334457, 19.000273750886336], [72.81758281446378, 19.000377975580662], [72.81767568107412, 19.00049411087066], [72.81756863953629, 19.000568802228315], [72.81764726519162, 19.00070897717943], [72.81777240997212, 19.000637556944994], [72.81781328422304, 19.000760265384628], [72.81801121170207, 19.000662963842473], [72.81795918633074, 19.000586143842852], [72.81803888813968, 19.000526028701827], [72.8179425289623, 19.000343616889424], [72.81785473285188, 19.00038807592675]]]}}, {"type": "Feature", "properties": {"Height": 66, "Type": "Sale"}, "geometry": {"type": "Polygon", "coordinates": [[[72.81756209015029, 19.000564070424517], [72.81745273124022, 19.000622375232894], [72.81739220882935, 19.000485471273834], [72.81718349995049, 19.000589695835586], [72.8172567183972, 19.00069163557771], [72.81716892228678, 19.00073609452207], [72.81728415716543, 19.000927239122447], [72.8173935160755, 19.000868934420907], [72.81744285435025, 19.000968333307057], [72.81759688377511, 19.000893261336273], [72.81753135689371, 19.000762550138006], [72.81763994334696, 19.000698783208705], [72.81756209015029, 19.000564070424517]]]}}, {"type": "Feature", "properties": {"Height": 66, "Type": "Sale"}, "geometry": {"type": "Polygon", "coordinates": [[[72.81764390467768, 19.000976273724902], [72.81748833033564, 19.001040421339084], [72.81753844106908, 19.001145282279253], [72.81742908215904, 19.00120358688396], [72.81754277212224, 19.001383806651546], [72.81767023427673, 19.00132877315673], [72.81770879115359, 19.00143509464877], [72.81787437443504, 19.001358562154223], [72.81780461554166, 19.001239505995173], [72.81788663472469, 19.001195777553164], [72.81778950308865, 19.00100790431432], [72.81769515759035, 19.001047631384978], [72.81764390467768, 19.000976273724902]]]}}, {"type": "Feature", "properties": {"Height": 66, "Type": "Sale"}, "geometry": {"type": "Polygon", "coordinates": [[[72.8179059791878, 19.001415724311187], [72.81775272222157, 19.001496258191125], [72.8178028329551, 19.001601118843126], [72.817697706057, 19.001647768643863], [72.81781371339429, 19.001844374329494], [72.81792307230438, 19.001786069949304], [72.81797163812234, 19.00188000615553], [72.81812566754715, 19.00180493459692], [72.8180844235738, 19.001721192256127], [72.81816489784137, 19.001666539663617], [72.81805466743327, 19.00146920340032], [72.81796109439182, 19.001514392504234], [72.8179059791878, 19.001415724311187]]]}}, {"type": "Feature", "properties": {"Height": 66, "Type": "Sale"}, "geometry": {"type": "Polygon", "coordinates": [[[72.81816959861519, 19.001866098002466], [72.81800556024922, 19.00195355452341], [72.81806722484109, 19.00205695415812], [72.81796864732905, 19.002108335591117], [72.81808965913694, 19.00229874825203], [72.8181816872611, 19.002242635121817], [72.8182275659826, 19.00235914989858], [72.81843781977881, 19.002265850683784], [72.81835264473747, 19.00212094528564], [72.81843889593239, 19.002065562459507], [72.81837336904914, 19.001934852183908], [72.81823512549661, 19.001996808333786], [72.81816959861519, 19.001866098002466]]]}}, {"type": "Feature", "properties": {"Height": 66, "Type": "Sale"}, "geometry": {"type": "Polygon", "coordinates": [[[72.81836681966496, 19.001930120417228], [72.81848272796108, 19.0018765478346], [72.81842452292611, 19.001756031314457], [72.81860088760743, 19.001672576097164], [72.81865291297868, 19.001749395594302], [72.81873493216168, 19.001705667286345], [72.81884361765435, 19.00189207900688], [72.81875736645753, 19.001947461889884], [72.81882480797876, 19.002050131165106], [72.81863420234248, 19.002157625777173], [72.8185497997597, 19.002018182411618], [72.81844621777708, 19.002075756346414], [72.81836681966496, 19.001930120417228]]]}}, {"type": "Feature", "properties": {"Height": 66, "Type": "Sale"}, "geometry": {"type": "Polygon", "coordinates": [[[72.81908974780583, 19.00097139207911], [72.81888103892689, 19.001075616336465], [72.81894424843424, 19.001189940825938], [72.81886300170805, 19.00123913142278], [72.81897823658667, 19.001430275445244], [72.81907026471089, 19.001374162022145], [72.81910650421364, 19.001464097050217], [72.81931598555116, 19.00136533518453], [72.81923544525802, 19.001253201919283], [72.81934480416805, 19.001194897331956], [72.81927272790057, 19.00105945458094], [72.81915759206132, 19.00111848958393], [72.81908974780583, 19.00097139207911]]]}}, {"type": "Feature", "properties": {"Height": 66, "Type": "Sale"}, "geometry": {"type": "Polygon", "coordinates": [[[72.8192661785146, 19.001054722791096], [72.81937476496594, 19.000990955972938], [72.81928613036942, 19.000863166330518], [72.81948251293491, 19.000754940511527], [72.81955304428692, 19.000879459181547], [72.81963429101131, 19.00083026847841], [72.81974452141935, 19.001027605499488], [72.819625926025, 19.001103757355096], [72.81967217446888, 19.00118130748369], [72.81953624828856, 19.00125965037259], [72.8194518457058, 19.001120206254498], [72.81933247785275, 19.001190895913837], [72.8192661785146, 19.001054722791096]]]}}, {"type": "Feature", "properties": {"Height": 66, "Type": "Sale"}, "geometry": {"type": "Polygon", "coordinates": [[[72.81972111000755, 19.001236278598427], [72.81956284857074, 19.001323005082256], [72.8196561179154, 19.00148356724337], [72.81957178135832, 19.001510909179316], [72.81965272438774, 19.001667469752405], [72.81973397111213, 19.001618279283107], [72.8198006401746, 19.001715486623127], [72.81996044652684, 19.001639684623527], [72.81990879087792, 19.001523899709312], [72.8200089133054, 19.001483442385748], [72.8199029149093, 19.00127445123489], [72.81977276565826, 19.001352063712787], [72.81972111000755, 19.001236278598427]]]}}, {"type": "Feature", "properties": {"Height": 66, "Type": "Sale"}, "geometry": {"type": "Polygon", "coordinates": [[[72.8199928237382, 19.00170230882283], [72.81983879431525, 19.00177738042774], [72.81991973734279, 19.001933940750973], [72.81982461938586, 19.00196820547133], [72.81992366565976, 19.002128036646], [72.81999759053949, 19.002068652425237], [72.82005925513141, 19.00217205198929], [72.8202248384128, 19.002095519833773], [72.82017472767936, 19.001990659492492], [72.82026252379163, 19.001946200883367], [72.82014651645429, 19.00174959531718], [72.82004293447164, 19.00180716934497], [72.8199928237382, 19.00170230882283]]]}}]}