{"type": "FeatureCollection", "features": [{"id": "3ec07a4fb2acc1c7b38ec3d98eb86e12", "type": "Feature", "properties": {"island": "Mahim", "year_joined": 1845, "project": "Mahim Causeway"}, "geometry": {"coordinates": [[[72.82136954498102, 19.01707549080912], [72.82537568535827, 19.018072196050355], [72.82959267523094, 19.020264926545508], [72.83233371864691, 19.02305563261028], [72.83507476206492, 19.026045622816895], [72.83676155801328, 19.029434213340778], [72.83844835396152, 19.032224765402617], [72.83887005294858, 19.034417309133303], [72.83865920345505, 19.036410505588435], [72.83887005294858, 19.039001625211696], [72.83823750446797, 19.041792016507628], [72.83950260142916, 19.04398443390822], [72.84118939737957, 19.04498097769887], [72.84308704282134, 19.04378512443212], [72.8460389357308, 19.04378512443212], [72.84709318320057, 19.042190640006794], [72.84730403269413, 19.03940025541189], [72.8492016781359, 19.0384036781183], [72.84941252762948, 19.03621118701959], [72.84814743066829, 19.032623411869977], [72.84751488218765, 19.029832866506325], [72.84646063471794, 19.028437576243988], [72.84540638725022, 19.0266436144028], [72.84456298927611, 19.0246503007491], [72.84477383876961, 19.02265696318358], [72.84329789231492, 19.020264926545508], [72.84182194586012, 19.01867021632657], [72.84034599940537, 19.01687614904374], [72.83760495598733, 19.014484029214188], [72.83591816003906, 19.012889263539847], [72.83338796611667, 19.01109513387439], [72.83106862168569, 19.00950033569835], [72.83043607320508, 19.008104874749932], [72.82874927725686, 19.01029773669859], [72.82642993282789, 19.010696435764444], [72.82495398637116, 19.010696435764444], [72.82432143789049, 19.013885993879185], [72.82326719042285, 19.015879436630456], [72.82136954498102, 19.01707549080912]]], "type": "Polygon"}}, {"id": "5ea6dcb3cb70013dc87a713eae839815", "type": "Feature", "properties": {"island": "Worli", "year_joined": 1784, "project": "Hornby Vellard"}, "geometry": {"coordinates": [[[72.81314641473108, 18.990162191256402], [72.81188131776781, 18.98717155594973], [72.81019452181954, 18.987370933307915], [72.81145961878079, 18.989962817239544], [72.81145961878079, 18.992355289673057], [72.81314641473108, 18.99355151299676], [72.81145961878079, 18.996342667318913], [72.81103791979368, 18.99953250065758], [72.81124876928723, 19.002124195222592], [72.81356811371819, 19.004915205759872], [72.8133572642246, 19.007307463236856], [72.81525490966646, 19.00989903667687], [72.81630915713407, 19.012889263539847], [72.81588745814705, 19.014882718242475], [72.8171525551083, 19.01607877959097], [72.81630915713407, 19.018271536381505], [72.81588745814705, 19.02305563261028], [72.81483321067938, 19.02544762907972], [72.81694170561471, 19.024450968068635], [72.81820680257593, 19.021062275916833], [72.81862850156307, 19.018072196050355], [72.81989359852628, 19.01607877959097], [72.81989359852628, 19.013686648289536], [72.82073699650041, 19.011892527226664], [72.82136954498102, 19.008902282439863], [72.82031529751342, 19.00670940209335], [72.82052614700689, 19.004317136015302], [72.81926105004567, 19.002921631582197], [72.81757425409535, 19.002124195222592], [72.81694170561471, 19.00052931103737], [72.81736340460182, 18.99873504805521], [72.81567660865352, 18.996542033693686], [72.81398981270524, 18.992554660823785], [72.81314641473108, 18.990162191256402]]], "type": "Polygon"}}, {"id": "2107e9c6125079d0bd0d6873bd761447", "type": "Feature", "properties": {"island": "Isle of Bombay", "year_joined": 1661, "project": "Core island"}, "geometry": {"coordinates": [[[72.79796525119033, 18.947291288910606], [72.7969110037227, 18.944698741454445], [72.79543505726792, 18.94370159709436], [72.79459165929381, 18.9415078585383], [72.79374826131968, 18.93891522126195], [72.79290486334554, 18.94250501600102], [72.79248316435849, 18.9468924380769], [72.79206146537132, 18.949684373896517], [72.79438080980032, 18.9528751004937], [72.7977544016968, 18.955666936212737], [72.79986289663421, 18.95885754839388], [72.80007374612777, 18.96204809954054], [72.80154969258257, 18.964042163009637], [72.80323648853081, 18.9662356052811], [72.80344733802434, 18.96862841848403], [72.80471243498553, 18.9708218004141], [72.80576668245536, 18.97341394184454], [72.8055558329618, 18.977002994186876], [72.80850772587124, 18.977800550876424], [72.81103791979368, 18.976604214410898], [72.81314641473108, 18.975607260795442], [72.81398981270524, 18.974012122603938], [72.81483321067938, 18.97102119734005], [72.81356811371819, 18.96822961866883], [72.812303016757, 18.96523858964406], [72.8125138662505, 18.96204809954054], [72.81377896321169, 18.9596551919026], [72.81736340460182, 18.957461663074653], [72.82073699650041, 18.956664009074956], [72.82453228738405, 18.95447044091155], [72.82938182573744, 18.952476263005934], [72.83380966510373, 18.951279744822315], [72.83465306307787, 18.953473354937728], [72.83380966510373, 18.957461663074653], [72.83275541763604, 18.961051058864484], [72.83402051459728, 18.96344394647207], [72.83760495598733, 18.964440972841714], [72.84097854788598, 18.962845727789343], [72.84076769839245, 18.961051058864484], [72.83865920345505, 18.95885754839388], [72.83760495598733, 18.955467520925154], [72.83718325700033, 18.95187800498664], [72.83718325700033, 18.94769013879207], [72.83760495598733, 18.94549645265299], [72.83760495598733, 18.942305584984965], [72.83718325700033, 18.938516350415625], [72.8363398590262, 18.935524788698373], [72.83676155801328, 18.932533173393594], [72.83549646105206, 18.93073817849138], [72.83444221358431, 18.928344821954155], [72.83507476206492, 18.926150881675568], [72.83233371864691, 18.92515362657207], [72.82959267523094, 18.923956912591024], [72.82748418029567, 18.92654978205057], [72.82790587928264, 18.931535956385233], [72.82896012675036, 18.935724227813353], [72.82664078232148, 18.939314091155424], [72.82537568535827, 18.943901026442703], [72.82115869548747, 18.949484951458473], [72.81567660865352, 18.954869273632113], [72.81188131776781, 18.956265180645218], [72.80871857536485, 18.956464594979266], [72.80492328447906, 18.953273937028086], [72.80197139156957, 18.950880903521067], [72.79901949866016, 18.94908610586745], [72.79796525119033, 18.947291288910606]]], "type": "Polygon"}}, {"id": "45f7d17466aa7a8e8210c65ecc3b1e4d", "type": "Feature", "properties": {"island": "Colaba", "year_joined": 1838, "project": "Colaba Causeway"}, "geometry": {"coordinates": [[[72.80766432790128, 18.894235767786682], [72.80682092992706, 18.895831668090935], [72.80745347840775, 18.898424973631492], [72.80956197334308, 18.90161667913476], [72.8110379197978, 18.903411986728386], [72.81272471574817, 18.906005174798565], [72.81546575916417, 18.910194085996608], [72.81862850156719, 18.912188768742624], [72.82200209346578, 18.914781820742334], [72.823688889414, 18.914981284615223], [72.82031529751754, 18.91119143034298], [72.817785103593, 18.90939620623743], [72.8148332106835, 18.906603597106297], [72.8148332106835, 18.903810941355218], [72.81356811372234, 18.90022031546779], [72.8110379197978, 18.89702858333328], [72.81019452182369, 18.895632181385082], [72.80766432790128, 18.894235767786682]]], "type": "Polygon"}}, {"id": "2854d34b945e4414ca9e247c3dc2e98e", "type": "Feature", "properties": {"island": "Old Woman's Island", "year_joined": 1838, "project": "Colaba Causeway"}, "geometry": {"coordinates": [[[72.82664078232563, 18.914981284615223], [72.82516483586883, 18.915978600411407], [72.82474313688175, 18.917574293309755], [72.82642993283201, 18.919369429616353], [72.82874927726098, 18.918571593638134], [72.82706248131268, 18.917374832530356], [72.82664078232563, 18.914981284615223]]], "type": "Polygon"}}, {"id": "c929031b29c18c15b735cf0f8d5d43c7", "type": "Feature", "properties": {"island": "Mazagaon", "year_joined": 1803, "project": "Duncan Causeway and 18th century infill"}, "geometry": {"coordinates": [[[72.8496233771271, 18.966235605280772], [72.84772573168533, 18.965039185800862], [72.84688233371119, 18.96344394647177], [72.84435213978668, 18.962446914141495], [72.84266534383838, 18.96324454048265], [72.840135149916, 18.964440972841345], [72.83802665497859, 18.96583679974144], [72.83507476206904, 18.96683381180108], [72.83233371865109, 18.970024210323515], [72.83170117017045, 18.972815758938665], [72.83317711662724, 18.975208477678777], [72.83423136409496, 18.97859810374679], [72.8359181600432, 18.97999381208325], [72.83971345092891, 18.98079135445502], [72.8409785478901, 18.982386427741275], [72.8428761933319, 18.98278519367618], [72.84308704282549, 18.980193198033916], [72.84393044079962, 18.978797491367885], [72.84308704282549, 18.9772023837166], [72.84435213978668, 18.974410908582982], [72.84646063472206, 18.974211515712597], [72.84814743067241, 18.97839871588701], [72.84983422662066, 18.981588893007398], [72.8494125276336, 18.976803604417853], [72.84877997915302, 18.97480969360808], [72.84877997915302, 18.973015153479054], [72.84646063472206, 18.971818782658147], [72.84730403269825, 18.970024210323515], [72.84561723674787, 18.96763141715678], [72.84835828016591, 18.96763141715678], [72.8496233771271, 18.966235605280772]]], "type": "Polygon"}}, {"id": "dea88d267840f811f79c3288e1f2e2cd", "type": "Feature", "properties": {"island": "Parel", "year_joined": 1803, "project": "18th century infill"}, "geometry": {"coordinates": [[[72.83844835396565, 18.985377148983005], [72.83802665497859, 18.98796906394969], [72.83612900953676, 18.988367816517496], [72.83507476206904, 18.990560938571576], [72.83423136409496, 18.992355289672716], [72.83570731054968, 18.99434899043591], [72.83612900953676, 18.996741399829375], [72.83802665497859, 18.998735048054897], [72.83802665497859, 19.001526115444292], [72.8409785478901, 19.00551327335397], [72.8428761933319, 19.00730746323657], [72.84350874181254, 19.010098386805907], [72.84688233371119, 19.01268991675485], [72.85109932358193, 19.01568009343056], [72.85215357104954, 19.019268234450962], [72.85278611953015, 19.022656963183238], [72.85489461446758, 19.025846291809998], [72.8536295175063, 19.027640262261286], [72.85489461446758, 19.029832866505046], [72.85531631345467, 19.033022057380208], [72.8561597114288, 19.036011868210196], [72.85742480838994, 19.03860299405501], [72.8561597114288, 19.0417920165073], [72.85447291548053, 19.042987884134106], [72.85320781851726, 19.044383052142138], [72.85531631345467, 19.045778208423073], [72.85489461446758, 19.047771268480986], [72.85847905585769, 19.047771268480986], [72.85932245383177, 19.04458236090028], [72.8599550023124, 19.04139339205092], [72.86206349724986, 19.03860299405501], [72.86417199218519, 19.040197512938732], [72.86438284167872, 19.042987884134106], [72.86438284167872, 19.046774741444437], [72.86417199218519, 19.04976430460249], [72.86206349724986, 19.04378512443175], [72.86164179826272, 19.047372658384447], [72.86206349724986, 19.05036221077073], [72.86543708914638, 19.05096011478443], [72.86606963762699, 19.047771268480986], [72.86670218610757, 19.045778208423073], [72.86796728307087, 19.047771268480986], [72.87218427294161, 19.044980977698557], [72.87155172446097, 19.042589262548432], [72.86859983155148, 19.03940025541057], [72.86986492851273, 19.037407094843715], [72.87197342344803, 19.03720777747111], [72.87218427294161, 19.034217988171775], [72.87197342344803, 19.031826117978156], [72.86902153053856, 19.03342070193493], [72.86733473458824, 19.03501527058114], [72.86501539015933, 19.034616629854938], [72.86375029319808, 19.03202544180982], [72.86206349724986, 19.031228145047976], [72.85847905585769, 19.03142746959719], [72.85847905585769, 19.029434213340465], [72.85784650737708, 19.027042274263408], [72.86122009927567, 19.028238248106774], [72.86206349724986, 19.025846291809998], [72.862906895224, 19.023254966963236], [72.86480454066577, 19.02425163514873], [72.86670218610757, 19.025447629079395], [72.86796728307087, 19.027839591115665], [72.86923238003214, 19.030231518713904], [72.87007577800622, 19.028038919730804], [72.86838898205792, 19.02425163514873], [72.86838898205792, 19.021660285434663], [72.86881068104498, 19.019268234450962], [72.8669130356011, 19.015480749991994], [72.86564793863997, 19.017872855479894], [72.86417199218519, 19.020065588604638], [72.86227434674336, 19.019068895315073], [72.8597441528189, 19.018072196050028], [72.85826820636413, 19.01727483233512], [72.85763565788352, 19.015082062397752], [72.85721395889644, 19.010297736698277], [72.8561597114288, 19.01348730246052], [72.85426206598697, 19.015480749991994], [72.85278611953015, 19.01348730246052], [72.8529969690237, 19.010895784938555], [72.85236442054307, 19.008104874749606], [72.85341866801076, 19.005911983888964], [72.85468376497406, 19.00730746323657], [72.85658141041586, 19.008503579072453], [72.85679225990935, 19.00491520575956], [72.85700310940291, 19.001725475609177], [72.85826820636413, 19.000529311037027], [72.86122009927567, 19.001526115444292], [72.86122009927567, 18.998336320320618], [72.85932245383177, 18.99933313786488], [72.85658141041586, 18.99813695609525], [72.85573801244172, 18.99614330070493], [72.8563705609223, 18.99434899043591], [72.85489461446758, 18.99255466082346], [72.85152102256896, 18.990560938571576], [72.8494125276336, 18.989364693759114], [72.84646063472206, 18.98796906394969], [72.84266534383838, 18.9859752867865], [72.84055684890305, 18.986374044128667], [72.83844835396565, 18.985377148983005]]], "type": "Polygon"}}]}